{"type":"FeatureCollection","features":[{"type":"Feature","geometry":{"type":"Point","coordinates":[-4.479267,50.880269]},"properties":{}},{"type":"Feature","geometry":{"type":"Point","coordinates":[-4.512154,50.923105]},"properties":{}},{"type":"Feature","geometry":{"type":"Point","coordinates":[-4.500795,50.481914]},"properties":{}},{"type":"Feature","geometry":{"type":"Point","coordinates":[-4.351543,50.637424]},"properties":{}},{"type":"Feature","geometry":{"type":"Point","coordinates":[-4.352147,50.50723]},"properties":{}},{"type":"Feature","geometry":{"type":"Point","coordinates":[-4.428045,50.587711]},"properties":{}},{"type":"Feature","geometry":{"type":"Point","coordinates":[-4.501315,50.710095]},"properties":{}},{"type":"Feature","geometry":{"type":"Point","coordinates":[-4.448807,50.84256]},"properties":{}},{"type":"Feature","geometry":{"type":"Point","coordinates":[-4.228234,50.36461]},"properties":{}},{"type":"Feature","geometry":{"type":"Point","coordinates":[-4.20933,50.331957]},"properties":{}},{"type":"Feature","geometry":{"type":"Point","coordinates":[-4.399206,50.377545]},"properties":{}},{"type":"Feature","geometry":{"type":"Point","coordinates":[-4.290418,50.447519]},"properties":{}},{"type":"Feature","geometry":{"type":"Point","coordinates":[-4.505741,50.391689]},"properties":{}},{"type":"Feature","geometry":{"type":"Point","coordinates":[-4.228085,50.416401]},"properties":{}},{"type":"Feature","geometry":{"type":"Point","coordinates":[-4.648973,50.599053]},"properties":{}},{"type":"Feature","geometry":{"type":"Point","coordinates":[-4.582231,50.607376]},"properties":{}},{"type":"Feature","geometry":{"type":"Point","coordinates":[-4.598596,50.603473]},"properties":{}},{"type":"Feature","geometry":{"type":"Point","coordinates":[-4.602661,50.61194]},"properties":{}},{"type":"Feature","geometry":{"type":"Point","coordinates":[-4.53109,50.877547]},"properties":{}},{"type":"Feature","geometry":{"type":"Point","coordinates":[-4.560121,50.70446]},"properties":{}},{"type":"Feature","geometry":{"type":"Point","coordinates":[-4.624966,50.574025]},"properties":{}},{"type":"Feature","geometry":{"type":"Point","coordinates":[-4.605788,50.589843]},"properties":{}},{"type":"Feature","geometry":{"type":"Point","coordinates":[-4.570036,50.591696]},"properties":{}},{"type":"Feature","geometry":{"type":"Point","coordinates":[-4.594947,50.593284]},"properties":{}},{"type":"Feature","geometry":{"type":"Point","coordinates":[-4.619338,50.585475]},"properties":{}},{"type":"Feature","geometry":{"type":"Point","coordinates":[-4.622882,50.596328]},"properties":{}},{"type":"Feature","geometry":{"type":"Point","coordinates":[-4.635099,50.332858]},"properties":{}},{"type":"Feature","geometry":{"type":"Point","coordinates":[-4.65156,50.380401]},"properties":{}},{"type":"Feature","geometry":{"type":"Point","coordinates":[-4.601016,50.393687]},"properties":{}},{"type":"Feature","geometry":{"type":"Point","coordinates":[-4.642079,50.419942]},"properties":{}},{"type":"Feature","geometry":{"type":"Point","coordinates":[-4.602973,50.569921]},"properties":{}},{"type":"Feature","geometry":{"type":"Point","coordinates":[-4.580251,50.573893]},"properties":{}},{"type":"Feature","geometry":{"type":"Point","coordinates":[-5.064135,50.415335]},"properties":{}},{"type":"Feature","geometry":{"type":"Point","coordinates":[-5.015017,50.438976]},"properties":{}},{"type":"Feature","geometry":{"type":"Point","coordinates":[-4.90539,50.503945]},"properties":{}},{"type":"Feature","geometry":{"type":"Point","coordinates":[-4.992289,50.449988]},"properties":{}},{"type":"Feature","geometry":{"type":"Point","coordinates":[-5.031886,50.4446]},"properties":{}},{"type":"Feature","geometry":{"type":"Point","coordinates":[-4.803089,50.539754]},"properties":{}},{"type":"Feature","geometry":{"type":"Point","coordinates":[-4.992166,50.401312]},"properties":{}},{"type":"Feature","geometry":{"type":"Point","coordinates":[-5.044539,50.406128]},"properties":{}},{"type":"Feature","geometry":{"type":"Point","coordinates":[-4.670196,50.406491]},"properties":{}},{"type":"Feature","geometry":{"type":"Point","coordinates":[-5.098792,50.406858]},"properties":{}},{"type":"Feature","geometry":{"type":"Point","coordinates":[-4.756179,50.407983]},"properties":{}},{"type":"Feature","geometry":{"type":"Point","coordinates":[-4.715069,50.413797]},"properties":{}},{"type":"Feature","geometry":{"type":"Point","coordinates":[-4.8085,50.376328]},"properties":{}},{"type":"Feature","geometry":{"type":"Point","coordinates":[-4.718088,50.375972]},"properties":{}},{"type":"Feature","geometry":{"type":"Point","coordinates":[-4.905586,50.377405]},"properties":{}},{"type":"Feature","geometry":{"type":"Point","coordinates":[-4.790149,50.391452]},"properties":{}},{"type":"Feature","geometry":{"type":"Point","coordinates":[-5.034236,50.393403]},"properties":{}},{"type":"Feature","geometry":{"type":"Point","coordinates":[-4.845176,50.394264]},"properties":{}},{"type":"Feature","geometry":{"type":"Point","coordinates":[-4.855169,50.265844]},"properties":{}},{"type":"Feature","geometry":{"type":"Point","coordinates":[-4.191593,50.323316]},"properties":{}},{"type":"Feature","geometry":{"type":"Point","coordinates":[-5.205515,50.113524]},"properties":{}},{"type":"Feature","geometry":{"type":"Point","coordinates":[-5.257636,50.117213]},"properties":{}},{"type":"Feature","geometry":{"type":"Point","coordinates":[-5.296952,50.197586]},"properties":{}},{"type":"Feature","geometry":{"type":"Point","coordinates":[-5.156057,50.128445]},"properties":{}},{"type":"Feature","geometry":{"type":"Point","coordinates":[-4.948327,50.231584]},"properties":{}},{"type":"Feature","geometry":{"type":"Point","coordinates":[-5.088477,50.240436]},"properties":{}},{"type":"Feature","geometry":{"type":"Point","coordinates":[-5.207542,50.038752]},"properties":{}},{"type":"Feature","geometry":{"type":"Point","coordinates":[-5.150644,50.096252]},"properties":{}},{"type":"Feature","geometry":{"type":"Point","coordinates":[-5.089665,50.049812]},"properties":{}},{"type":"Feature","geometry":{"type":"Point","coordinates":[-5.234714,49.981711]},"properties":{}},{"type":"Feature","geometry":{"type":"Point","coordinates":[-5.324414,50.097238]},"properties":{}},{"type":"Feature","geometry":{"type":"Point","coordinates":[-5.233088,50.112102]},"properties":{}},{"type":"Feature","geometry":{"type":"Point","coordinates":[-5.472434,50.174021]},"properties":{}},{"type":"Feature","geometry":{"type":"Point","coordinates":[-5.43289,50.176631]},"properties":{}},{"type":"Feature","geometry":{"type":"Point","coordinates":[-5.524521,50.187911]},"properties":{}},{"type":"Feature","geometry":{"type":"Point","coordinates":[-5.461277,50.188324]},"properties":{}},{"type":"Feature","geometry":{"type":"Point","coordinates":[-5.486525,50.207786]},"properties":{}},{"type":"Feature","geometry":{"type":"Point","coordinates":[-5.455682,50.176039]},"properties":{}},{"type":"Feature","geometry":{"type":"Point","coordinates":[-5.484863,50.129599]},"properties":{}},{"type":"Feature","geometry":{"type":"Point","coordinates":[-5.363237,50.164153]},"properties":{}},{"type":"Feature","geometry":{"type":"Point","coordinates":[-5.514992,50.151697]},"properties":{}},{"type":"Feature","geometry":{"type":"Point","coordinates":[-5.45798,50.162579]},"properties":{}},{"type":"Feature","geometry":{"type":"Point","coordinates":[-5.476665,50.134832]},"properties":{}},{"type":"Feature","geometry":{"type":"Point","coordinates":[-5.492459,50.131677]},"properties":{}},{"type":"Feature","geometry":{"type":"Point","coordinates":[-5.352267,50.106227]},"properties":{}},{"type":"Feature","geometry":{"type":"Point","coordinates":[-5.424013,50.101479]},"properties":{}},{"type":"Feature","geometry":{"type":"Point","coordinates":[-5.45106,50.115118]},"properties":{}},{"type":"Feature","geometry":{"type":"Point","coordinates":[-5.433092,50.12108]},"properties":{}},{"type":"Feature","geometry":{"type":"Point","coordinates":[-5.365481,50.122915]},"properties":{}},{"type":"Feature","geometry":{"type":"Point","coordinates":[-5.529592,50.124422]},"properties":{}},{"type":"Feature","geometry":{"type":"Point","coordinates":[-5.653157,50.159172]},"properties":{}},{"type":"Feature","geometry":{"type":"Point","coordinates":[-5.641849,50.164381]},"properties":{}},{"type":"Feature","geometry":{"type":"Point","coordinates":[-5.589522,50.17015]},"properties":{}},{"type":"Feature","geometry":{"type":"Point","coordinates":[-5.533509,50.206099]},"properties":{}},{"type":"Feature","geometry":{"type":"Point","coordinates":[-5.530995,50.164425]},"properties":{}},{"type":"Feature","geometry":{"type":"Point","coordinates":[-5.626974,50.165933]},"properties":{}},{"type":"Feature","geometry":{"type":"Point","coordinates":[-5.589723,50.114083]},"properties":{}},{"type":"Feature","geometry":{"type":"Point","coordinates":[-5.680145,50.116619]},"properties":{}},{"type":"Feature","geometry":{"type":"Point","coordinates":[-5.643506,50.131275]},"properties":{}},{"type":"Feature","geometry":{"type":"Point","coordinates":[-5.588412,50.13139]},"properties":{}},{"type":"Feature","geometry":{"type":"Point","coordinates":[-5.693935,50.131391]},"properties":{}},{"type":"Feature","geometry":{"type":"Point","coordinates":[-5.686499,50.148788]},"properties":{}},{"type":"Feature","geometry":{"type":"Point","coordinates":[-5.598278,50.067552]},"properties":{}},{"type":"Feature","geometry":{"type":"Point","coordinates":[-5.687939,50.054689]},"properties":{}},{"type":"Feature","geometry":{"type":"Point","coordinates":[-5.663488,50.046995]},"properties":{}},{"type":"Feature","geometry":{"type":"Point","coordinates":[-5.538454,50.083494]},"properties":{}},{"type":"Feature","geometry":{"type":"Point","coordinates":[-5.681044,50.091462]},"properties":{}},{"type":"Feature","geometry":{"type":"Point","coordinates":[-5.673639,50.102993]},"properties":{}}]}