{"type":"FeatureCollection","features":[{"type":"Feature","geometry":{"type":"Point","coordinates":[-4.687112,50.540369]},"properties":{}},{"type":"Feature","geometry":{"type":"Point","coordinates":[-4.610515,50.757298]},"properties":{}},{"type":"Feature","geometry":{"type":"Point","coordinates":[-4.858618,50.426181]},"properties":{}},{"type":"Feature","geometry":{"type":"Point","coordinates":[-4.812893,50.433582]},"properties":{}},{"type":"Feature","geometry":{"type":"Point","coordinates":[-4.296428,50.518523]},"properties":{}},{"type":"Feature","geometry":{"type":"Point","coordinates":[-4.293416,50.514808]},"properties":{}},{"type":"Feature","geometry":{"type":"Point","coordinates":[-4.291784,50.525743]},"properties":{}},{"type":"Feature","geometry":{"type":"Point","coordinates":[-4.677028,50.539685]},"properties":{}},{"type":"Feature","geometry":{"type":"Point","coordinates":[-4.834499,50.351709]},"properties":{}},{"type":"Feature","geometry":{"type":"Point","coordinates":[-4.85987,50.396397]},"properties":{}},{"type":"Feature","geometry":{"type":"Point","coordinates":[-4.855463,50.407017]},"properties":{}},{"type":"Feature","geometry":{"type":"Point","coordinates":[-4.850272,50.412672]},"properties":{}},{"type":"Feature","geometry":{"type":"Point","coordinates":[-4.721534,50.421616]},"properties":{}},{"type":"Feature","geometry":{"type":"Point","coordinates":[-4.748167,50.421707]},"properties":{}},{"type":"Feature","geometry":{"type":"Point","coordinates":[-4.872547,50.413788]},"properties":{}},{"type":"Feature","geometry":{"type":"Point","coordinates":[-4.887252,50.467049]},"properties":{}},{"type":"Feature","geometry":{"type":"Point","coordinates":[-4.879244,50.430672]},"properties":{}},{"type":"Feature","geometry":{"type":"Point","coordinates":[-4.883059,50.472238]},"properties":{}},{"type":"Feature","geometry":{"type":"Point","coordinates":[-4.9173,50.476932]},"properties":{}},{"type":"Feature","geometry":{"type":"Point","coordinates":[-4.935546,50.478909]},"properties":{}},{"type":"Feature","geometry":{"type":"Point","coordinates":[-5.051693,50.342185]},"properties":{}},{"type":"Feature","geometry":{"type":"Point","coordinates":[-5.051663,50.346857]},"properties":{}},{"type":"Feature","geometry":{"type":"Point","coordinates":[-5.042003,50.34773]},"properties":{}},{"type":"Feature","geometry":{"type":"Point","coordinates":[-5.0434,50.353273]},"properties":{}},{"type":"Feature","geometry":{"type":"Point","coordinates":[-4.896271,50.399745]},"properties":{}},{"type":"Feature","geometry":{"type":"Point","coordinates":[-4.878282,50.404401]},"properties":{}},{"type":"Feature","geometry":{"type":"Point","coordinates":[-5.094479,50.244337]},"properties":{}},{"type":"Feature","geometry":{"type":"Point","coordinates":[-5.200745,50.318073]},"properties":{}},{"type":"Feature","geometry":{"type":"Point","coordinates":[-5.176809,50.257836]},"properties":{}},{"type":"Feature","geometry":{"type":"Point","coordinates":[-5.167748,50.259342]},"properties":{}},{"type":"Feature","geometry":{"type":"Point","coordinates":[-5.092812,50.249497]},"properties":{}},{"type":"Feature","geometry":{"type":"Point","coordinates":[-5.217452,50.320185]},"properties":{}},{"type":"Feature","geometry":{"type":"Point","coordinates":[-5.233278,50.295222]},"properties":{}},{"type":"Feature","geometry":{"type":"Point","coordinates":[-5.231473,50.300792]},"properties":{}},{"type":"Feature","geometry":{"type":"Point","coordinates":[-5.221762,50.311182]},"properties":{}},{"type":"Feature","geometry":{"type":"Point","coordinates":[-5.231519,50.312846]},"properties":{}},{"type":"Feature","geometry":{"type":"Point","coordinates":[-5.230782,50.304478]},"properties":{}},{"type":"Feature","geometry":{"type":"Point","coordinates":[-5.220324,50.306249]},"properties":{}},{"type":"Feature","geometry":{"type":"Point","coordinates":[-5.538869,50.21229]},"properties":{}},{"type":"Feature","geometry":{"type":"Point","coordinates":[-5.225292,50.292985]},"properties":{}},{"type":"Feature","geometry":{"type":"Point","coordinates":[-5.235049,50.280218]},"properties":{}},{"type":"Feature","geometry":{"type":"Point","coordinates":[-5.239492,50.283421]},"properties":{}},{"type":"Feature","geometry":{"type":"Point","coordinates":[-5.242248,50.222888]},"properties":{}},{"type":"Feature","geometry":{"type":"Point","coordinates":[-5.254493,50.220291]},"properties":{}},{"type":"Feature","geometry":{"type":"Point","coordinates":[-5.562306,50.190785]},"properties":{}},{"type":"Feature","geometry":{"type":"Point","coordinates":[-5.610615,50.172061]},"properties":{}},{"type":"Feature","geometry":{"type":"Point","coordinates":[-5.529137,50.192931]},"properties":{}},{"type":"Feature","geometry":{"type":"Point","coordinates":[-5.538845,50.186049]},"properties":{}},{"type":"Feature","geometry":{"type":"Point","coordinates":[-5.497991,50.185198]},"properties":{}},{"type":"Feature","geometry":{"type":"Point","coordinates":[-5.496446,50.201428]},"properties":{}},{"type":"Feature","geometry":{"type":"Point","coordinates":[-5.154717,50.043265]},"properties":{}},{"type":"Feature","geometry":{"type":"Point","coordinates":[-5.164627,50.046195]},"properties":{}},{"type":"Feature","geometry":{"type":"Point","coordinates":[-5.130654,50.031997]},"properties":{}},{"type":"Feature","geometry":{"type":"Point","coordinates":[-5.090466,50.033035]},"properties":{}},{"type":"Feature","geometry":{"type":"Point","coordinates":[-5.158053,50.033465]},"properties":{}},{"type":"Feature","geometry":{"type":"Point","coordinates":[-5.177873,50.034096]},"properties":{}},{"type":"Feature","geometry":{"type":"Point","coordinates":[-5.114282,50.036204]},"properties":{}},{"type":"Feature","geometry":{"type":"Point","coordinates":[-5.176205,50.042383]},"properties":{}},{"type":"Feature","geometry":{"type":"Point","coordinates":[-5.160408,50.016697]},"properties":{}},{"type":"Feature","geometry":{"type":"Point","coordinates":[-5.178364,50.022844]},"properties":{}},{"type":"Feature","geometry":{"type":"Point","coordinates":[-5.16968,50.026437]},"properties":{}},{"type":"Feature","geometry":{"type":"Point","coordinates":[-5.114792,50.02402]},"properties":{}},{"type":"Feature","geometry":{"type":"Point","coordinates":[-5.156042,50.025586]},"properties":{}},{"type":"Feature","geometry":{"type":"Point","coordinates":[-5.124871,50.027025]},"properties":{}},{"type":"Feature","geometry":{"type":"Point","coordinates":[-5.199018,50.030156]},"properties":{}},{"type":"Feature","geometry":{"type":"Point","coordinates":[-5.214619,50.034726]},"properties":{}},{"type":"Feature","geometry":{"type":"Point","coordinates":[-5.198724,50.039705]},"properties":{}},{"type":"Feature","geometry":{"type":"Point","coordinates":[-5.292682,50.152638]},"properties":{}},{"type":"Feature","geometry":{"type":"Point","coordinates":[-5.190384,50.052559]},"properties":{}},{"type":"Feature","geometry":{"type":"Point","coordinates":[-5.360925,50.123965]},"properties":{}},{"type":"Feature","geometry":{"type":"Point","coordinates":[-5.236837,50.009912]},"properties":{}},{"type":"Feature","geometry":{"type":"Point","coordinates":[-5.230802,50.011079]},"properties":{}},{"type":"Feature","geometry":{"type":"Point","coordinates":[-5.255921,50.01275]},"properties":{}},{"type":"Feature","geometry":{"type":"Point","coordinates":[-5.226142,50.013632]},"properties":{}},{"type":"Feature","geometry":{"type":"Point","coordinates":[-5.215295,50.014279]},"properties":{}},{"type":"Feature","geometry":{"type":"Point","coordinates":[-5.193916,50.022624]},"properties":{}},{"type":"Feature","geometry":{"type":"Point","coordinates":[-5.221876,49.975214]},"properties":{}},{"type":"Feature","geometry":{"type":"Point","coordinates":[-5.22325,49.987738]},"properties":{}},{"type":"Feature","geometry":{"type":"Point","coordinates":[-5.241058,49.980451]},"properties":{}},{"type":"Feature","geometry":{"type":"Point","coordinates":[-5.216332,49.980861]},"properties":{}},{"type":"Feature","geometry":{"type":"Point","coordinates":[-5.24935,49.992028]},"properties":{}},{"type":"Feature","geometry":{"type":"Point","coordinates":[-5.21123,49.998367]},"properties":{}},{"type":"Feature","geometry":{"type":"Point","coordinates":[-5.605716,50.143923]},"properties":{}},{"type":"Feature","geometry":{"type":"Point","coordinates":[-5.601947,50.158772]},"properties":{}},{"type":"Feature","geometry":{"type":"Point","coordinates":[-5.644998,50.143923]},"properties":{}},{"type":"Feature","geometry":{"type":"Point","coordinates":[-5.576753,50.170173]},"properties":{}},{"type":"Feature","geometry":{"type":"Point","coordinates":[-5.568951,50.162659]},"properties":{}},{"type":"Feature","geometry":{"type":"Point","coordinates":[-5.59744,50.171654]},"properties":{}},{"type":"Feature","geometry":{"type":"Point","coordinates":[-5.641627,50.102808]},"properties":{}},{"type":"Feature","geometry":{"type":"Point","coordinates":[-5.615997,50.110798]},"properties":{}},{"type":"Feature","geometry":{"type":"Point","coordinates":[-5.636311,50.125301]},"properties":{}},{"type":"Feature","geometry":{"type":"Point","coordinates":[-5.619129,50.126681]},"properties":{}},{"type":"Feature","geometry":{"type":"Point","coordinates":[-5.66298,50.138822]},"properties":{}},{"type":"Feature","geometry":{"type":"Point","coordinates":[-5.369483,50.13341]},"properties":{}},{"type":"Feature","geometry":{"type":"Point","coordinates":[-5.707435,50.059083]},"properties":{}},{"type":"Feature","geometry":{"type":"Point","coordinates":[-5.680406,50.038335]},"properties":{}},{"type":"Feature","geometry":{"type":"Point","coordinates":[-5.686193,50.045177]},"properties":{}},{"type":"Feature","geometry":{"type":"Point","coordinates":[-5.711425,50.066971]},"properties":{}},{"type":"Feature","geometry":{"type":"Point","coordinates":[-5.705276,50.074867]},"properties":{}},{"type":"Feature","geometry":{"type":"Point","coordinates":[-5.655236,50.096852]},"properties":{}}]}