{"type":"FeatureCollection","features":[{"type":"Feature","geometry":{"type":"Polygon","coordinates":[[[-5.722185,50.078003],[-5.722158,50.078564],[-5.722046,50.079122],[-5.72185,50.079669],[-5.721572,50.080202],[-5.721215,50.080715],[-5.720781,50.081203],[-5.720275,50.081661],[-5.719703,50.082086],[-5.719068,50.082473],[-5.718378,50.082819],[-5.717639,50.08312],[-5.716857,50.083373],[-5.704808,50.086816],[-5.703791,50.08885],[-5.703521,50.089319],[-5.703189,50.089771],[-5.702798,50.090202],[-5.701974,50.091026],[-5.701974,50.092138],[-5.707289,50.097454],[-5.707689,50.097895],[-5.708026,50.098357],[-5.708297,50.098836],[-5.708502,50.099329],[-5.708638,50.099832],[-5.710627,50.109774],[-5.711782,50.110929],[-5.712208,50.111403],[-5.712562,50.111901],[-5.712841,50.112419],[-5.713041,50.112951],[-5.713163,50.113492],[-5.713203,50.114039],[-5.713203,50.11714],[-5.721196,50.127132],[-5.721558,50.127645],[-5.721841,50.128178],[-5.72204,50.128727],[-5.722156,50.129285],[-5.722185,50.129848],[-5.722129,50.13041],[-5.721987,50.130966],[-5.721761,50.13151],[-5.721454,50.132038],[-5.721067,50.132543],[-5.720605,50.133022],[-5.720073,50.13347],[-5.719475,50.133883],[-5.718817,50.134256],[-5.718105,50.134586],[-5.717346,50.134869],[-5.717323,50.134877],[-5.717494,50.135288],[-5.717637,50.135849],[-5.717693,50.136415],[-5.717662,50.136983],[-5.717544,50.137545],[-5.71734,50.138098],[-5.717052,50.138635],[-5.716683,50.139151],[-5.716236,50.139641],[-5.715716,50.140101],[-5.715129,50.140526],[-5.714478,50.140911],[-5.713772,50.141254],[-5.713016,50.14155],[-5.712219,50.141797],[-5.711387,50.141993],[-5.705659,50.143139],[-5.704146,50.150703],[-5.703995,50.15125],[-5.703761,50.151785],[-5.703449,50.152303],[-5.703059,50.1528],[-5.702597,50.15327],[-5.702066,50.15371],[-5.686253,50.165569],[-5.686253,50.167937],[-5.686209,50.168508],[-5.686076,50.169074],[-5.685856,50.169628],[-5.685552,50.170166],[-5.685165,50.170682],[-5.684701,50.17117],[-5.684163,50.171627],[-5.683557,50.172047],[-5.682889,50.172426],[-5.682165,50.172762],[-5.681393,50.173049],[-5.68058,50.173286],[-5.679734,50.17347],[-5.678865,50.173599],[-5.677979,50.173673],[-5.677086,50.17369],[-5.676195,50.173649],[-5.675315,50.173553],[-5.663734,50.171899],[-5.658094,50.174719],[-5.657404,50.175031],[-5.656672,50.175301],[-5.655903,50.175525],[-5.655105,50.175702],[-5.654284,50.17583],[-5.653448,50.175909],[-5.652604,50.175936],[-5.65176,50.175913],[-5.650923,50.175839],[-5.650101,50.175715],[-5.6493,50.175543],[-5.643029,50.173975],[-5.635777,50.175184],[-5.633815,50.177145],[-5.631927,50.180921],[-5.63161,50.181461],[-5.631209,50.181978],[-5.63073,50.182466],[-5.630177,50.182921],[-5.629555,50.183339],[-5.628871,50.183715],[-5.628132,50.184045],[-5.620981,50.186905],[-5.620945,50.187056],[-5.620718,50.187618],[-5.620405,50.188163],[-5.620007,50.188684],[-5.619529,50.189177],[-5.618977,50.189637],[-5.609994,50.196375],[-5.609403,50.196777],[-5.608755,50.197141],[-5.608055,50.197463],[-5.60731,50.197742],[-5.606528,50.197973],[-5.605714,50.198155],[-5.604876,50.198286],[-5.604023,50.198365],[-5.603162,50.198392],[-5.6023,50.198365],[-5.601447,50.198286],[-5.60061,50.198155],[-5.599796,50.197973],[-5.599013,50.197742],[-5.598242,50.197485],[-5.596165,50.198869],[-5.595453,50.199295],[-5.594674,50.199669],[-5.593835,50.199986],[-5.589223,50.201524],[-5.586023,50.204724],[-5.585508,50.205186],[-5.584925,50.205614],[-5.584279,50.206003],[-5.583576,50.206349],[-5.582823,50.206649],[-5.582028,50.2069],[-5.581197,50.2071],[-5.58034,50.207246],[-5.579465,50.207337],[-5.57858,50.207373],[-5.577694,50.207353],[-5.576815,50.207277],[-5.575952,50.207146],[-5.575113,50.206961],[-5.574307,50.206724],[-5.572696,50.206186],[-5.565957,50.209555],[-5.564556,50.212358],[-5.564239,50.212898],[-5.563839,50.213415],[-5.563359,50.213904],[-5.562806,50.214359],[-5.562184,50.214776],[-5.5615,50.215152],[-5.560761,50.215482],[-5.551247,50.219286],[-5.550092,50.220442],[-5.549569,50.220911],[-5.548975,50.221345],[-5.548316,50.221738],[-5.547599,50.222087],[-5.54683,50.222389],[-5.546019,50.222639],[-5.545172,50.222837],[-5.544299,50.222979],[-5.543408,50.223064],[-5.542508,50.223092],[-5.541608,50.223062],[-5.540717,50.222974],[-5.539845,50.22283],[-5.532157,50.221292],[-5.52871,50.222441],[-5.527926,50.222673],[-5.527112,50.222855],[-5.526274,50.222986],[-5.525421,50.223065],[-5.524559,50.223092],[-5.51867,50.223092],[-5.516617,50.224118],[-5.515957,50.224419],[-5.515258,50.22468],[-5.514525,50.224899],[-5.513764,50.225076],[-5.502535,50.227321],[-5.501703,50.227459],[-5.500855,50.227547],[-5.499997,50.227582],[-5.499138,50.227564],[-5.498285,50.227494],[-5.497447,50.227372],[-5.496631,50.227199],[-5.495844,50.226977],[-5.495095,50.226709],[-5.4892,50.224351],[-5.485175,50.226364],[-5.484469,50.226683],[-5.483719,50.226957],[-5.482931,50.227184],[-5.482113,50.227361],[-5.481271,50.227487],[-5.480415,50.227561],[-5.479552,50.227582],[-5.478689,50.22755],[-5.477836,50.227465],[-5.476999,50.227327],[-5.476186,50.227139],[-5.475406,50.226902],[-5.474664,50.226618],[-5.473969,50.22629],[-5.473326,50.225921],[-5.472742,50.225514],[-5.472222,50.225072],[-5.47177,50.224601],[-5.471391,50.224104],[-5.471088,50.223587],[-5.468842,50.219096],[-5.468609,50.218532],[-5.468466,50.217957],[-5.468415,50.217375],[-5.468456,50.216793],[-5.468589,50.216216],[-5.468813,50.215651],[-5.469125,50.215104],[-5.469522,50.214579],[-5.469779,50.214313],[-5.467392,50.213716],[-5.466574,50.213481],[-5.465797,50.213194],[-5.465068,50.21286],[-5.464395,50.212481],[-5.463785,50.21206],[-5.463243,50.211603],[-5.462775,50.211114],[-5.462385,50.210597],[-5.462078,50.210058],[-5.461856,50.209502],[-5.461723,50.208934],[-5.461678,50.208361],[-5.461678,50.205128],[-5.457186,50.205128],[-5.456288,50.205099],[-5.455399,50.205013],[-5.454527,50.20487],[-5.453683,50.204673],[-5.452873,50.204422],[-5.452107,50.204121],[-5.451391,50.203772],[-5.450734,50.203379],[-5.450141,50.202946],[-5.449619,50.202477],[-5.449271,50.202129],[-5.441582,50.200848],[-5.441005,50.201246],[-5.423433,50.212228],[-5.413069,50.220518],[-5.403872,50.231555],[-5.4075,50.240623],[-5.407676,50.241174],[-5.407767,50.241733],[-5.407772,50.242295],[-5.407691,50.242855],[-5.407525,50.243407],[-5.407275,50.243946],[-5.406944,50.244467],[-5.406536,50.244964],[-5.406053,50.245434],[-5.4055,50.245871],[-5.404884,50.246272],[-5.404209,50.246632],[-5.403482,50.246949],[-5.40271,50.247218],[-5.401901,50.247438],[-5.401063,50.247606],[-5.389389,50.249552],[-5.386365,50.251064],[-5.385658,50.251383],[-5.384907,50.251658],[-5.384117,50.251885],[-5.383297,50.252063],[-5.382455,50.252189],[-5.381597,50.252262],[-5.380732,50.252283],[-5.379868,50.25225],[-5.379013,50.252164],[-5.378174,50.252026],[-5.377361,50.251837],[-5.37658,50.251599],[-5.375838,50.251314],[-5.375142,50.250985],[-5.3745,50.250614],[-5.373916,50.250205],[-5.373396,50.249763],[-5.372945,50.24929],[-5.372568,50.248792],[-5.369683,50.244467],[-5.359791,50.247292],[-5.358953,50.2475],[-5.358087,50.247653],[-5.357202,50.247751],[-5.356306,50.247791],[-5.355408,50.247773],[-5.354517,50.247699],[-5.353642,50.247568],[-5.352793,50.247381],[-5.351976,50.247142],[-5.34909,50.24618],[-5.338612,50.249173],[-5.324564,50.2572],[-5.311602,50.268],[-5.31101,50.268445],[-5.310349,50.268849],[-5.309628,50.269209],[-5.308853,50.269519],[-5.308033,50.269777],[-5.307177,50.269981],[-5.306292,50.270128],[-5.305388,50.270217],[-5.304475,50.270247],[-5.299111,50.270247],[-5.297664,50.270536],[-5.297687,50.270631],[-5.297738,50.271211],[-5.297697,50.271792],[-5.297564,50.272368],[-5.29734,50.272932],[-5.297029,50.273478],[-5.296632,50.274002],[-5.296155,50.274497],[-5.295602,50.274959],[-5.294978,50.275383],[-5.294291,50.275764],[-5.285308,50.280255],[-5.284637,50.28056],[-5.283925,50.280824],[-5.277187,50.283069],[-5.276403,50.2833],[-5.275589,50.283482],[-5.27475,50.283614],[-5.273896,50.283693],[-5.273034,50.283719],[-5.272376,50.283719],[-5.268291,50.286443],[-5.267634,50.286839],[-5.266918,50.287191],[-5.26615,50.287495],[-5.265337,50.287749],[-5.26449,50.287949],[-5.256384,50.28957],[-5.254146,50.291807],[-5.247736,50.302491],[-5.247413,50.302964],[-5.247024,50.303417],[-5.246573,50.303846],[-5.246064,50.304248],[-5.2455,50.304618],[-5.244886,50.304955],[-5.244196,50.3053],[-5.246057,50.320193],[-5.246084,50.320756],[-5.246024,50.321318],[-5.245878,50.321873],[-5.245648,50.322417],[-5.245335,50.322944],[-5.244943,50.323448],[-5.244475,50.323926],[-5.243936,50.324372],[-5.243331,50.324782],[-5.242666,50.325152],[-5.241948,50.325478],[-5.241182,50.325759],[-5.240378,50.325989],[-5.23262,50.327929],[-5.229166,50.329655],[-5.228457,50.329976],[-5.227702,50.330251],[-5.226909,50.330479],[-5.226086,50.330656],[-5.225239,50.330782],[-5.224378,50.330855],[-5.223509,50.330874],[-5.222642,50.33084],[-5.221783,50.330753],[-5.220942,50.330613],[-5.213261,50.329076],[-5.20982,50.330223],[-5.209013,50.330461],[-5.208174,50.330646],[-5.20731,50.330777],[-5.20643,50.330854],[-5.206059,50.330862],[-5.205949,50.330961],[-5.205324,50.331411],[-5.204629,50.331816],[-5.203871,50.332173],[-5.203058,50.332477],[-5.202201,50.332726],[-5.198925,50.333545],[-5.198925,50.334122],[-5.198881,50.334689],[-5.19875,50.335251],[-5.198532,50.335801],[-5.19823,50.336335],[-5.197846,50.336848],[-5.197385,50.337333],[-5.196851,50.337787],[-5.19625,50.338205],[-5.195586,50.338584],[-5.194867,50.338918],[-5.1941,50.339205],[-5.192187,50.339843],[-5.192187,50.343106],[-5.192145,50.343664],[-5.192017,50.344216],[-5.191806,50.344759],[-5.191513,50.345285],[-5.191141,50.345791],[-5.190694,50.346271],[-5.190176,50.346721],[-5.189592,50.347137],[-5.188947,50.347514],[-5.188248,50.34785],[-5.1875,50.348141],[-5.186712,50.348383],[-5.185891,50.348576],[-5.175425,50.350669],[-5.169398,50.352679],[-5.168515,50.352935],[-5.164492,50.353941],[-5.16292,50.361798],[-5.162796,50.362264],[-5.158501,50.375149],[-5.158501,50.37625],[-5.164044,50.379022],[-5.164716,50.379394],[-5.165327,50.379806],[-5.165871,50.380255],[-5.166343,50.380736],[-5.166738,50.381244],[-5.167052,50.381775],[-5.167282,50.382323],[-5.167427,50.382883],[-5.167483,50.383449],[-5.167452,50.384015],[-5.167333,50.384578],[-5.167127,50.385129],[-5.166837,50.385665],[-5.166464,50.386181],[-5.166014,50.38667],[-5.165771,50.386883],[-5.166075,50.387188],[-5.166506,50.387668],[-5.166861,50.388172],[-5.167139,50.388695],[-5.167337,50.389234],[-5.167452,50.389781],[-5.167484,50.390334],[-5.167432,50.390886],[-5.167296,50.391432],[-5.167079,50.391967],[-5.166782,50.392486],[-5.166408,50.392985],[-5.165961,50.393458],[-5.165443,50.393901],[-5.164862,50.394311],[-5.16422,50.394683],[-5.163526,50.395014],[-5.162785,50.395301],[-5.162004,50.395541],[-5.16119,50.395731],[-5.154968,50.396976],[-5.1548,50.39748],[-5.158257,50.399785],[-5.15883,50.400206],[-5.159336,50.400661],[-5.15977,50.401145],[-5.160128,50.401654],[-5.160407,50.402182],[-5.160604,50.402725],[-5.160718,50.403278],[-5.160746,50.403835],[-5.160689,50.404392],[-5.160548,50.404942],[-5.160323,50.405481],[-5.158077,50.409972],[-5.157772,50.410492],[-5.15739,50.410991],[-5.156933,50.411465],[-5.156406,50.411908],[-5.155815,50.412316],[-5.155164,50.412686],[-5.15446,50.413013],[-5.15371,50.413296],[-5.15292,50.413531],[-5.152098,50.413717],[-5.151251,50.41385],[-5.150389,50.413931],[-5.149518,50.413958],[-5.147272,50.413958],[-5.14642,50.413932],[-5.145575,50.413855],[-5.145538,50.413849],[-5.145233,50.414111],[-5.144641,50.414527],[-5.143988,50.414904],[-5.14328,50.415239],[-5.142524,50.415528],[-5.141727,50.415768],[-5.140897,50.415957],[-5.140042,50.416093],[-5.13917,50.416176],[-5.138289,50.416203],[-5.136043,50.416203],[-5.13519,50.416178],[-5.134346,50.4161],[-5.133516,50.415972],[-5.132709,50.415795],[-5.131933,50.415569],[-5.131193,50.415298],[-5.130737,50.415091],[-5.130586,50.415308],[-5.130149,50.415797],[-5.12964,50.416256],[-5.129063,50.41668],[-5.122326,50.421171],[-5.121679,50.421561],[-5.120975,50.421909],[-5.12022,50.42221],[-5.119422,50.422463],[-5.118589,50.422664],[-5.117728,50.422811],[-5.116849,50.422903],[-5.11596,50.422939],[-5.11507,50.422919],[-5.114187,50.422843],[-5.11332,50.422711],[-5.112478,50.422526],[-5.11167,50.422288],[-5.110478,50.421891],[-5.109022,50.429168],[-5.108868,50.42972],[-5.108631,50.430259],[-5.108312,50.430781],[-5.107914,50.43128],[-5.107441,50.431753],[-5.106899,50.432193],[-5.106291,50.432598],[-5.105624,50.432963],[-5.104905,50.433285],[-5.104139,50.43356],[-5.103335,50.433786],[-5.1025,50.433961],[-5.101642,50.434084],[-5.100769,50.434152],[-5.09989,50.434166],[-5.099013,50.434124],[-5.098147,50.434029],[-5.0973,50.43388],[-5.096479,50.433679],[-5.095693,50.433428],[-5.09495,50.433129],[-5.094256,50.432785],[-5.093618,50.432399],[-5.093042,50.431976],[-5.092534,50.431519],[-5.090692,50.429677],[-5.088885,50.429677],[-5.088004,50.429649],[-5.087132,50.429567],[-5.086277,50.429431],[-5.085447,50.429242],[-5.08465,50.429002],[-5.083893,50.428713],[-5.083185,50.428378],[-5.082532,50.428001],[-5.08194,50.427585],[-5.081414,50.427134],[-5.080961,50.426652],[-5.08072,50.426327],[-5.064485,50.434444],[-5.05433,50.446628],[-5.050999,50.451626],[-5.052839,50.458987],[-5.052937,50.459576],[-5.052939,50.460168],[-5.052846,50.460756],[-5.052657,50.461336],[-5.052375,50.4619],[-5.052218,50.462129],[-5.052317,50.462268],[-5.052592,50.462778],[-5.05279,50.463303],[-5.05291,50.463838],[-5.05295,50.464377],[-5.05295,50.466623],[-5.052905,50.467197],[-5.052769,50.467765],[-5.052545,50.468322],[-5.052233,50.468861],[-5.051839,50.469378],[-5.051365,50.469867],[-5.050816,50.470323],[-5.050198,50.470742],[-5.049517,50.471119],[-5.046931,50.472412],[-5.047054,50.472536],[-5.047506,50.473043],[-5.047875,50.473577],[-5.048155,50.474132],[-5.048346,50.474702],[-5.048445,50.475282],[-5.04845,50.475865],[-5.048362,50.476445],[-5.048182,50.477016],[-5.044206,50.486953],[-5.045925,50.492109],[-5.04674,50.493739],[-5.051745,50.494991],[-5.052547,50.495221],[-5.053309,50.495499],[-5.054025,50.495824],[-5.054688,50.496191],[-5.05529,50.496598],[-5.055828,50.497041],[-5.056295,50.497515],[-5.056687,50.498015],[-5.057,50.498538],[-5.057231,50.499077],[-5.057378,50.499629],[-5.05744,50.500187],[-5.057416,50.500746],[-5.057306,50.5013],[-5.057111,50.501846],[-5.056834,50.502376],[-5.056476,50.502887],[-5.056041,50.503373],[-5.055534,50.50383],[-5.054959,50.504253],[-5.048222,50.508744],[-5.047272,50.509293],[-5.044953,50.510452],[-5.043545,50.513269],[-5.04324,50.513789],[-5.042858,50.514288],[-5.042402,50.51476],[-5.041875,50.515203],[-5.041284,50.51561],[-5.040633,50.51598],[-5.039929,50.516307],[-5.039627,50.516421],[-5.04165,50.526538],[-5.041719,50.527101],[-5.041699,50.527666],[-5.041592,50.528226],[-5.041398,50.528778],[-5.04112,50.529314],[-5.040759,50.52983],[-5.04032,50.530322],[-5.038074,50.532567],[-5.037553,50.533035],[-5.03696,50.533467],[-5.036302,50.53386],[-5.035585,50.534208],[-5.034818,50.534509],[-5.034006,50.534759],[-5.033384,50.534904],[-5.033036,50.535949],[-5.035311,50.5405],[-5.044001,50.541948],[-5.044867,50.542123],[-5.0457,50.542352],[-5.046492,50.542633],[-5.047236,50.542964],[-5.047924,50.54334],[-5.048548,50.543759],[-5.049103,50.544216],[-5.049582,50.544706],[-5.049981,50.545224],[-5.050295,50.545765],[-5.050522,50.546324],[-5.050659,50.546894],[-5.050705,50.54747],[-5.050705,50.549716],[-5.050665,50.550254],[-5.050546,50.550787],[-5.050348,50.55131],[-5.050073,50.551819],[-5.049724,50.55231],[-5.049304,50.552777],[-5.044812,50.557268],[-5.04429,50.557736],[-5.043697,50.558168],[-5.04304,50.55856],[-5.042323,50.558908],[-5.041555,50.559209],[-5.040744,50.559459],[-5.039897,50.559657],[-5.039023,50.559799],[-5.038131,50.559885],[-5.03723,50.559914],[-5.023756,50.559914],[-5.022885,50.559887],[-5.022021,50.559807],[-5.021174,50.559673],[-5.020352,50.559488],[-5.019561,50.559254],[-5.018811,50.558971],[-5.018106,50.558644],[-5.017456,50.558275],[-5.016864,50.557868],[-5.016338,50.557426],[-5.015881,50.556953],[-5.015499,50.556455],[-5.015195,50.555935],[-5.014324,50.554194],[-5.008069,50.555237],[-5.007224,50.55535],[-5.006366,50.555412],[-5.005503,50.555421],[-5.004642,50.555377],[-5.003792,50.555281],[-5.00296,50.555133],[-5.002154,50.554935],[-5.001382,50.554689],[-5.000651,50.554397],[-4.999967,50.554062],[-4.999337,50.553687],[-4.998767,50.553275],[-4.998261,50.55283],[-4.997826,50.552356],[-4.997463,50.551858],[-4.997178,50.55134],[-4.996973,50.550807],[-4.996953,50.550722],[-4.996261,50.550829],[-4.995415,50.550906],[-4.994561,50.550932],[-4.990915,50.550932],[-4.979992,50.563674],[-4.979537,50.564149],[-4.979011,50.564593],[-4.978419,50.565003],[-4.977767,50.565374],[-4.977062,50.565703],[-4.976309,50.565987],[-4.975517,50.566223],[-4.974692,50.566409],[-4.973843,50.566543],[-4.972977,50.566624],[-4.972103,50.566651],[-4.968477,50.566651],[-4.966828,50.567476],[-4.967191,50.568201],[-4.967414,50.568736],[-4.967554,50.569282],[-4.967611,50.569835],[-4.967583,50.570388],[-4.967471,50.570937],[-4.967275,50.571477],[-4.966998,50.572001],[-4.966642,50.572507],[-4.966211,50.572988],[-4.963965,50.575233],[-4.963444,50.5757],[-4.962851,50.576132],[-4.962193,50.576524],[-4.961476,50.576872],[-4.960708,50.577173],[-4.959897,50.577423],[-4.95905,50.577621],[-4.958176,50.577763],[-4.957284,50.577849],[-4.956383,50.577878],[-4.951891,50.577878],[-4.951037,50.577852],[-4.95019,50.577775],[-4.949359,50.577647],[-4.94855,50.577469],[-4.947772,50.577243],[-4.947032,50.576971],[-4.946335,50.576656],[-4.941844,50.574411],[-4.941193,50.574052],[-4.940598,50.573655],[-4.940067,50.573223],[-4.939603,50.572762],[-4.939211,50.572273],[-4.938895,50.571764],[-4.938822,50.571602],[-4.93546,50.576644],[-4.935066,50.57716],[-4.934593,50.577649],[-4.934044,50.578105],[-4.933427,50.578524],[-4.932746,50.578901],[-4.930507,50.580021],[-4.939858,50.582693],[-4.940623,50.58294],[-4.941348,50.583233],[-4.942026,50.583568],[-4.94265,50.583943],[-4.943214,50.584354],[-4.943715,50.584797],[-4.944146,50.585269],[-4.944505,50.585765],[-4.944787,50.58628],[-4.94499,50.586809],[-4.945113,50.587349],[-4.945154,50.587894],[-4.945154,50.592385],[-4.945108,50.59296],[-4.944971,50.59353],[-4.944744,50.594088],[-4.94443,50.594628],[-4.944031,50.595146],[-4.943552,50.595635],[-4.942998,50.596092],[-4.942374,50.59651],[-4.941686,50.596886],[-4.940943,50.597216],[-4.940151,50.597497],[-4.939318,50.597726],[-4.938452,50.5979],[-4.930925,50.599155],[-4.930619,50.599565],[-4.930166,50.600045],[-4.929641,50.600494],[-4.929049,50.600909],[-4.928396,50.601285],[-4.927688,50.601618],[-4.926932,50.601906],[-4.926135,50.602145],[-4.925305,50.602333],[-4.92445,50.602469],[-4.923578,50.602551],[-4.922697,50.602579],[-4.920451,50.602579],[-4.919579,50.602552],[-4.918716,50.602472],[-4.917869,50.602338],[-4.917046,50.602153],[-4.916255,50.601919],[-4.915505,50.601637],[-4.9148,50.60131],[-4.914149,50.600941],[-4.913558,50.600533],[-4.913031,50.600091],[-4.912575,50.599619],[-4.912193,50.599121],[-4.911889,50.598602],[-4.91076,50.596344],[-4.907291,50.595188],[-4.906527,50.594902],[-4.90607,50.594689],[-4.900273,50.595655],[-4.899371,50.595774],[-4.898454,50.595834],[-4.897533,50.595834],[-4.896616,50.595774],[-4.895714,50.595655],[-4.894836,50.595478],[-4.893991,50.595244],[-4.893188,50.594957],[-4.892435,50.594619],[-4.88757,50.592187],[-4.88279,50.595771],[-4.878628,50.599933],[-4.878107,50.600401],[-4.877514,50.600833],[-4.876856,50.601225],[-4.876139,50.601573],[-4.875371,50.601874],[-4.874559,50.602124],[-4.873712,50.602322],[-4.872838,50.602464],[-4.871945,50.60255],[-4.871044,50.602579],[-4.862928,50.602579],[-4.85639,50.605847],[-4.85567,50.606172],[-4.854903,50.60645],[-4.854097,50.606679],[-4.853259,50.606857],[-4.852398,50.606982],[-4.851521,50.607053],[-4.850638,50.607068],[-4.849757,50.607028],[-4.848886,50.606934],[-4.848034,50.606786],[-4.847209,50.606585],[-4.846419,50.606334],[-4.845672,50.606035],[-4.844975,50.605691],[-4.844334,50.605305],[-4.843756,50.604881],[-4.843247,50.604422],[-4.843173,50.604349],[-4.842946,50.604414],[-4.842138,50.604592],[-4.841306,50.60472],[-4.840459,50.604798],[-4.839604,50.604824],[-4.83875,50.604798],[-4.837903,50.60472],[-4.837071,50.604592],[-4.836263,50.604415],[-4.835484,50.604189],[-4.835112,50.604052],[-4.834732,50.604192],[-4.833949,50.604418],[-4.833135,50.604596],[-4.832298,50.604723],[-4.831445,50.6048],[-4.830585,50.604824],[-4.829725,50.604795],[-4.828874,50.604715],[-4.828038,50.604583],[-4.827227,50.604401],[-4.826446,50.60417],[-4.823017,50.603028],[-4.805233,50.606584],[-4.797085,50.609844],[-4.782529,50.628038],[-4.782892,50.628568],[-4.783172,50.629132],[-4.783359,50.629712],[-4.783451,50.6303],[-4.783445,50.630892],[-4.783343,50.63148],[-4.783146,50.632058],[-4.776408,50.647777],[-4.776109,50.648352],[-4.775716,50.648903],[-4.775232,50.649425],[-4.774665,50.649911],[-4.774019,50.650356],[-4.773302,50.650755],[-4.770014,50.6524],[-4.769985,50.652429],[-4.769985,50.652991],[-4.774249,50.655834],[-4.774807,50.656243],[-4.775301,50.656684],[-4.775727,50.657153],[-4.776081,50.657645],[-4.77636,50.658157],[-4.77656,50.658682],[-4.776682,50.659218],[-4.776722,50.659758],[-4.776722,50.662004],[-4.776677,50.662572],[-4.776543,50.663135],[-4.776321,50.663686],[-4.776014,50.66422],[-4.772812,50.669023],[-4.774057,50.671512],[-4.774283,50.672056],[-4.774424,50.672611],[-4.774477,50.673172],[-4.774442,50.673734],[-4.77432,50.674292],[-4.774112,50.674838],[-4.77382,50.675369],[-4.773447,50.675879],[-4.772996,50.676364],[-4.772471,50.676818],[-4.771879,50.677236],[-4.771225,50.677616],[-4.770514,50.677953],[-4.769754,50.678244],[-4.768953,50.678486],[-4.768119,50.678676],[-4.767258,50.678814],[-4.76643,50.678892],[-4.76432,50.679947],[-4.763623,50.680263],[-4.762881,50.680535],[-4.762102,50.680761],[-4.761293,50.680939],[-4.76046,50.681067],[-4.759612,50.681144],[-4.758756,50.68117],[-4.758546,50.68117],[-4.758391,50.681577],[-4.758099,50.682108],[-4.757725,50.682618],[-4.757274,50.683102],[-4.75675,50.683555],[-4.756158,50.683974],[-4.755503,50.684354],[-4.754792,50.68469],[-4.754033,50.684981],[-4.753232,50.685223],[-4.752397,50.685414],[-4.751537,50.685551],[-4.750659,50.685634],[-4.749773,50.685662],[-4.743036,50.685662],[-4.742134,50.685633],[-4.741241,50.685547],[-4.740366,50.685405],[-4.739518,50.685207],[-4.738733,50.684965],[-4.738126,50.68618],[-4.737861,50.686639],[-4.737535,50.687083],[-4.73715,50.687507],[-4.732658,50.691999],[-4.732149,50.692457],[-4.731571,50.692881],[-4.73093,50.693266],[-4.730232,50.693611],[-4.729484,50.69391],[-4.728693,50.69416],[-4.727867,50.694361],[-4.727014,50.694509],[-4.726142,50.694603],[-4.72526,50.694642],[-4.724376,50.694627],[-4.723499,50.694556],[-4.722637,50.694431],[-4.721798,50.694253],[-4.720992,50.694023],[-4.720224,50.693745],[-4.719504,50.69342],[-4.718531,50.692933],[-4.718294,50.692973],[-4.718333,50.693385],[-4.718298,50.693947],[-4.718176,50.694504],[-4.717968,50.69505],[-4.717676,50.695581],[-4.717302,50.696091],[-4.716851,50.696575],[-4.716327,50.697028],[-4.715735,50.697447],[-4.71508,50.697826],[-4.71437,50.698163],[-4.71361,50.698454],[-4.712809,50.698695],[-4.712385,50.698792],[-4.711932,50.699197],[-4.711375,50.699606],[-4.71076,50.699979],[-4.710092,50.700314],[-4.709377,50.700608],[-4.708621,50.700857],[-4.707832,50.701059],[-4.698018,50.703239],[-4.697931,50.70359],[-4.697702,50.704145],[-4.695456,50.708636],[-4.695191,50.709096],[-4.694865,50.709539],[-4.69448,50.709964],[-4.692234,50.712208],[-4.691716,50.712673],[-4.691128,50.713102],[-4.690474,50.713493],[-4.689763,50.713839],[-4.689,50.71414],[-4.688194,50.71439],[-4.687352,50.714588],[-4.678335,50.716392],[-4.668208,50.723142],[-4.664584,50.734016],[-4.66657,50.741963],[-4.666664,50.742505],[-4.666675,50.74305],[-4.666603,50.743594],[-4.66645,50.744131],[-4.666215,50.744656],[-4.665903,50.745164],[-4.665515,50.745651],[-4.665055,50.746112],[-4.664527,50.746543],[-4.663937,50.74694],[-4.663289,50.7473],[-4.662589,50.747618],[-4.661844,50.747893],[-4.661062,50.748121],[-4.660248,50.748301],[-4.659411,50.748431],[-4.658558,50.748509],[-4.657697,50.748535],[-4.653045,50.748535],[-4.653161,50.749019],[-4.653206,50.749588],[-4.653161,50.750157],[-4.653026,50.75072],[-4.652803,50.751271],[-4.652494,50.751806],[-4.652102,50.752318],[-4.65163,50.752803],[-4.651085,50.753256],[-4.65047,50.753672],[-4.649793,50.754047],[-4.645301,50.756293],[-4.644548,50.756631],[-4.643745,50.756918],[-4.642899,50.757152],[-4.64202,50.75733],[-4.632363,50.758939],[-4.622975,50.770203],[-4.62251,50.770698],[-4.621969,50.771161],[-4.621357,50.771586],[-4.62068,50.77197],[-4.619945,50.772309],[-4.619159,50.772599],[-4.618331,50.772837],[-4.617469,50.773021],[-4.616583,50.77315],[-4.600284,50.77496],[-4.597917,50.777327],[-4.5974,50.777792],[-4.596811,50.778221],[-4.596158,50.778611],[-4.595446,50.778958],[-4.594683,50.779258],[-4.593876,50.779509],[-4.593034,50.779707],[-4.586255,50.781063],[-4.585415,50.782741],[-4.585105,50.783269],[-4.584713,50.783776],[-4.584244,50.784255],[-4.583702,50.784702],[-4.583092,50.785113],[-4.582421,50.785484],[-4.579133,50.787128],[-4.574078,50.792183],[-4.572556,50.796749],[-4.574411,50.802316],[-4.574562,50.802939],[-4.574603,50.803569],[-4.574533,50.804198],[-4.572359,50.815072],[-4.572359,50.834927],[-4.572315,50.835489],[-4.572183,50.836045],[-4.571965,50.83659],[-4.571662,50.837119],[-4.571277,50.837626],[-4.570815,50.838107],[-4.57028,50.838556],[-4.570071,50.8387],[-4.572167,50.844988],[-4.572311,50.845569],[-4.572359,50.846156],[-4.572359,50.876102],[-4.572521,50.876213],[-4.573047,50.876653],[-4.573503,50.877123],[-4.573885,50.877619],[-4.574188,50.878136],[-4.576084,50.881929],[-4.579957,50.885801],[-4.580404,50.886303],[-4.580768,50.886831],[-4.581045,50.887379],[-4.581232,50.887942],[-4.581329,50.888514],[-4.581332,50.88909],[-4.581244,50.889662],[-4.581063,50.890227],[-4.580793,50.890776],[-4.580436,50.891306],[-4.579995,50.89181],[-4.579476,50.892283],[-4.578883,50.89272],[-4.57538,50.895055],[-4.576481,50.898358],[-4.58064,50.904595],[-4.580947,50.90513],[-4.581168,50.905682],[-4.5813,50.906245],[-4.581342,50.906813],[-4.581293,50.907382],[-4.581154,50.907944],[-4.580926,50.908495],[-4.578882,50.912582],[-4.576741,50.921148],[-4.576572,50.921663],[-4.576329,50.922167],[-4.576012,50.922654],[-4.575625,50.923121],[-4.575171,50.923562],[-4.574654,50.923976],[-4.574078,50.924357],[-4.573449,50.924703],[-4.568958,50.926948],[-4.568222,50.927279],[-4.567438,50.927561],[-4.566613,50.927793],[-4.565755,50.927971],[-4.564873,50.928094],[-4.563976,50.928161],[-4.563073,50.92817],[-4.457522,50.925925],[-4.456652,50.92588],[-4.455793,50.925782],[-4.454953,50.925631],[-4.45414,50.92543],[-4.453363,50.925181],[-4.452627,50.924884],[-4.45194,50.924544],[-4.451309,50.924164],[-4.45074,50.923747],[-4.450237,50.923297],[-4.449806,50.922818],[-4.449451,50.922316],[-4.449175,50.921793],[-4.44898,50.921257],[-4.44887,50.920711],[-4.446798,50.904138],[-4.436753,50.894094],[-4.436231,50.893495],[-4.409282,50.857565],[-4.408959,50.857076],[-4.40871,50.856571],[-4.408536,50.856053],[-4.40844,50.855527],[-4.408422,50.854998],[-4.408482,50.85447],[-4.408619,50.853948],[-4.408833,50.853436],[-4.409122,50.852939],[-4.413613,50.846201],[-4.414029,50.84566],[-4.414533,50.845149],[-4.415119,50.844676],[-4.415782,50.844244],[-4.416514,50.843858],[-4.417306,50.843524],[-4.431165,50.838327],[-4.433137,50.816636],[-4.43321,50.816168],[-4.433345,50.815705],[-4.433539,50.815251],[-4.442522,50.797284],[-4.442841,50.796744],[-4.443245,50.796227],[-4.44373,50.795738],[-4.444291,50.795283],[-4.444921,50.794866],[-4.445616,50.794492],[-4.446367,50.794164],[-4.447167,50.793886],[-4.448007,50.793661],[-4.473525,50.787771],[-4.473541,50.787748],[-4.470516,50.786538],[-4.438917,50.784432],[-4.438021,50.784343],[-4.437145,50.784197],[-4.436295,50.783997],[-4.435482,50.783743],[-4.434714,50.783439],[-4.433998,50.783088],[-4.433342,50.782692],[-4.409853,50.767035],[-4.401991,50.773323],[-4.40141,50.773744],[-4.400766,50.774126],[-4.400067,50.774467],[-4.399317,50.774762],[-4.398526,50.77501],[-4.3977,50.775207],[-4.396847,50.775352],[-4.395976,50.775443],[-4.395095,50.77548],[-4.394213,50.775462],[-4.393337,50.775389],[-4.392478,50.775263],[-4.391641,50.775083],[-4.373675,50.770592],[-4.372862,50.770358],[-4.372089,50.770074],[-4.371364,50.769743],[-4.370695,50.769369],[-4.370088,50.768954],[-4.36955,50.768503],[-4.369084,50.76802],[-4.368697,50.767511],[-4.368392,50.766979],[-4.368172,50.766432],[-4.368039,50.765873],[-4.367995,50.765308],[-4.367995,50.741755],[-4.355227,50.722604],[-4.354955,50.722142],[-4.354748,50.721667],[-4.354607,50.721183],[-4.354532,50.720693],[-4.352394,50.695029],[-4.339889,50.680441],[-4.339542,50.67999],[-4.33926,50.679522],[-4.339043,50.67904],[-4.326401,50.645328],[-4.29124,50.630852],[-4.290531,50.630528],[-4.289876,50.630162],[-4.28928,50.629757],[-4.288748,50.629318],[-4.288286,50.628848],[-4.287898,50.628352],[-4.287588,50.627834],[-4.287359,50.6273],[-4.287212,50.626754],[-4.28715,50.626201],[-4.287173,50.625648],[-4.291336,50.590261],[-4.278893,50.583151],[-4.27833,50.5828],[-4.277819,50.582419],[-4.277361,50.582011],[-4.276962,50.581579],[-4.265733,50.568105],[-4.265334,50.567557],[-4.265028,50.566986],[-4.264818,50.566397],[-4.264708,50.565798],[-4.262873,50.547455],[-4.21525,50.539519],[-4.214449,50.539359],[-4.213674,50.539153],[-4.212934,50.538902],[-4.212233,50.538608],[-4.211579,50.538273],[-4.210976,50.537902],[-4.210431,50.537496],[-4.209948,50.537059],[-4.200965,50.528077],[-4.200565,50.527634],[-4.200229,50.527171],[-4.199959,50.526691],[-4.199758,50.526197],[-4.196355,50.515986],[-4.178902,50.512496],[-4.178081,50.512303],[-4.177294,50.512061],[-4.176548,50.511771],[-4.175849,50.511436],[-4.175205,50.51106],[-4.174622,50.510646],[-4.174104,50.510198],[-4.173658,50.509719],[-4.173287,50.509216],[-4.172995,50.508692],[-4.172784,50.508152],[-4.172656,50.507602],[-4.172614,50.507046],[-4.172614,50.498063],[-4.172659,50.49749],[-4.172795,50.496922],[-4.173019,50.496366],[-4.17333,50.495827],[-4.173725,50.49531],[-4.174199,50.494822],[-4.174748,50.494366],[-4.175365,50.493947],[-4.176046,50.49357],[-4.185029,50.489079],[-4.185759,50.48875],[-4.186536,50.488469],[-4.187353,50.488238],[-4.188202,50.488061],[-4.189075,50.487938],[-4.189962,50.48787],[-4.190856,50.48786],[-4.191747,50.487905],[-4.209756,50.489406],[-4.210864,50.483867],[-4.211044,50.483244],[-4.211332,50.482636],[-4.211724,50.482053],[-4.222114,50.468695],[-4.213739,50.467764],[-4.212923,50.467648],[-4.212128,50.467485],[-4.211359,50.467275],[-4.210625,50.46702],[-4.209931,50.466723],[-4.209284,50.466387],[-4.193563,50.457404],[-4.192941,50.457013],[-4.192383,50.456585],[-4.191892,50.456124],[-4.191474,50.455635],[-4.191132,50.455123],[-4.190871,50.454592],[-4.190692,50.454047],[-4.188446,50.445064],[-4.188343,50.444424],[-4.188354,50.44378],[-4.188479,50.443141],[-4.192971,50.42742],[-4.193174,50.426867],[-4.193462,50.426329],[-4.193833,50.425812],[-4.194282,50.425321],[-4.194806,50.424861],[-4.195398,50.424436],[-4.196054,50.424051],[-4.196766,50.423709],[-4.197528,50.423414],[-4.198333,50.423168],[-4.199171,50.422974],[-4.200036,50.422835],[-4.200918,50.42275],[-4.201809,50.422722],[-4.209618,50.422722],[-4.210074,50.420443],[-4.208875,50.420043],[-4.208109,50.419756],[-4.207391,50.419422],[-4.206728,50.419045],[-4.206127,50.418628],[-4.205593,50.418175],[-4.205133,50.41769],[-4.20475,50.417179],[-4.204448,50.416646],[-4.20423,50.416097],[-4.204099,50.415537],[-4.204055,50.414971],[-4.204055,50.410479],[-4.204095,50.409938],[-4.204215,50.409403],[-4.204414,50.408877],[-4.20469,50.408365],[-4.20504,50.407872],[-4.205463,50.407402],[-4.208872,50.403992],[-4.210138,50.397665],[-4.203771,50.395118],[-4.203041,50.394792],[-4.202364,50.394422],[-4.201749,50.394011],[-4.2012,50.393563],[-4.200724,50.393083],[-4.200324,50.392575],[-4.200006,50.392044],[-4.199772,50.391496],[-4.199624,50.390935],[-4.199613,50.390834],[-4.198512,50.390283],[-4.197845,50.389915],[-4.197239,50.389507],[-4.196698,50.389062],[-4.196228,50.388587],[-4.195833,50.388084],[-4.195518,50.387558],[-4.195285,50.387016],[-4.195136,50.386462],[-4.195074,50.385901],[-4.195098,50.385338],[-4.195209,50.38478],[-4.195312,50.384491],[-4.193071,50.382998],[-4.192509,50.382585],[-4.192012,50.382141],[-4.191583,50.381668],[-4.191226,50.381171],[-4.190945,50.380655],[-4.190743,50.380124],[-4.190621,50.379584],[-4.19058,50.379038],[-4.19058,50.376793],[-4.19062,50.376252],[-4.19074,50.375715],[-4.190939,50.375189],[-4.191216,50.374676],[-4.191567,50.374183],[-4.191989,50.373712],[-4.194235,50.371466],[-4.196481,50.36922],[-4.197003,50.368752],[-4.197596,50.368319],[-4.198253,50.367927],[-4.198969,50.367578],[-4.199736,50.367277],[-4.200547,50.367026],[-4.201392,50.366829],[-4.20204,50.366723],[-4.200777,50.366407],[-4.19992,50.366159],[-4.199108,50.365855],[-4.19835,50.365498],[-4.197655,50.365093],[-4.19703,50.364644],[-4.196572,50.364235],[-4.189384,50.367828],[-4.188689,50.368143],[-4.18795,50.368414],[-4.187174,50.36864],[-4.186368,50.368817],[-4.185539,50.368945],[-4.184695,50.369022],[-4.183843,50.369048],[-4.182991,50.369022],[-4.182147,50.368945],[-4.181318,50.368817],[-4.180512,50.36864],[-4.179736,50.368414],[-4.178997,50.368143],[-4.178301,50.367828],[-4.173809,50.365582],[-4.173134,50.365209],[-4.172521,50.364794],[-4.171974,50.364343],[-4.171501,50.363859],[-4.171106,50.363347],[-4.170793,50.362813],[-4.169388,50.360004],[-4.167073,50.358846],[-4.16639,50.358468],[-4.165771,50.358048],[-4.165221,50.35759],[-4.164745,50.3571],[-4.164349,50.356581],[-4.164037,50.35604],[-4.163812,50.355481],[-4.163676,50.354911],[-4.163631,50.354335],[-4.163631,50.349844],[-4.163671,50.349302],[-4.163791,50.348765],[-4.163991,50.348238],[-4.164267,50.347725],[-4.164618,50.347231],[-4.165041,50.34676],[-4.167287,50.344514],[-4.167782,50.344068],[-4.168341,50.343654],[-4.168959,50.343276],[-4.169631,50.342937],[-4.170351,50.34264],[-4.171111,50.342388],[-4.171906,50.342184],[-4.190312,50.338093],[-4.196125,50.334605],[-4.189746,50.328226],[-4.189357,50.327797],[-4.189028,50.327349],[-4.18876,50.326884],[-4.186514,50.322394],[-4.186286,50.321845],[-4.186144,50.321285],[-4.18609,50.320719],[-4.186123,50.320152],[-4.186243,50.31959],[-4.18645,50.319039],[-4.186741,50.318503],[-4.187114,50.317988],[-4.187565,50.317499],[-4.188089,50.317041],[-4.188681,50.316618],[-4.189336,50.316235],[-4.190047,50.315894],[-4.190807,50.315601],[-4.191609,50.315356],[-4.192445,50.315164],[-4.193306,50.315025],[-4.194185,50.314941],[-4.195072,50.314913],[-4.212549,50.314913],[-4.225998,50.309149],[-4.226754,50.308858],[-4.227551,50.308616],[-4.228381,50.308425],[-4.229237,50.308287],[-4.230109,50.308204],[-4.230991,50.308175],[-4.231872,50.308202],[-4.232745,50.308284],[-4.233601,50.30842],[-4.234432,50.308609],[-4.23523,50.30885],[-4.235988,50.309139],[-4.236697,50.309474],[-4.237351,50.309852],[-4.237944,50.31027],[-4.23847,50.310722],[-4.238924,50.311205],[-4.239302,50.311715],[-4.2396,50.312245],[-4.239814,50.312792],[-4.239944,50.313349],[-4.239987,50.313912],[-4.239987,50.318974],[-4.240821,50.319808],[-4.241256,50.320294],[-4.241615,50.320804],[-4.241894,50.321334],[-4.242091,50.321879],[-4.242204,50.322433],[-4.242232,50.322992],[-4.242174,50.32355],[-4.242032,50.324102],[-4.241806,50.324642],[-4.241499,50.325166],[-4.241113,50.325668],[-4.240653,50.326143],[-4.240123,50.326588],[-4.239527,50.326998],[-4.238871,50.327369],[-4.238162,50.327697],[-4.237618,50.3279],[-4.241034,50.329608],[-4.241231,50.32971],[-4.278676,50.349536],[-4.284034,50.351322],[-4.31118,50.357587],[-4.325326,50.357587],[-4.326234,50.357617],[-4.327133,50.357704],[-4.328014,50.35785],[-4.335691,50.359386],[-4.339132,50.358239],[-4.339916,50.358007],[-4.340733,50.357825],[-4.341572,50.357693],[-4.342428,50.357614],[-4.343292,50.357587],[-4.372486,50.357587],[-4.37326,50.357608],[-4.374028,50.357672],[-4.393475,50.359833],[-4.423267,50.359833],[-4.438261,50.357959],[-4.445041,50.354569],[-4.448846,50.352031],[-4.448889,50.3515],[-4.449032,50.350917],[-4.449267,50.350346],[-4.451513,50.345855],[-4.451844,50.345296],[-4.452265,50.344761],[-4.45277,50.344258],[-4.453356,50.34379],[-4.454014,50.343365],[-4.454738,50.342985],[-4.45552,50.342655],[-4.469054,50.33758],[-4.469054,50.336369],[-4.469097,50.335807],[-4.469226,50.33525],[-4.469441,50.334705],[-4.469738,50.334175],[-4.470115,50.333666],[-4.470568,50.333183],[-4.471093,50.332731],[-4.471685,50.332314],[-4.472338,50.331937],[-4.473046,50.331601],[-4.473802,50.331312],[-4.474599,50.331071],[-4.475429,50.330882],[-4.476284,50.330745],[-4.477156,50.330663],[-4.478037,50.330635],[-4.480283,50.330635],[-4.481056,50.330656],[-4.481824,50.33072],[-4.498573,50.332581],[-4.498674,50.33238],[-4.498975,50.331865],[-4.499351,50.331371],[-4.4998,50.330902],[-4.500317,50.330463],[-4.500897,50.330057],[-4.501536,50.329689],[-4.502226,50.329361],[-4.502963,50.329078],[-4.503739,50.32884],[-4.504547,50.328651],[-4.515776,50.326406],[-4.538232,50.321913],[-4.539112,50.321768],[-4.54001,50.32168],[-4.540918,50.321651],[-4.552147,50.321651],[-4.553055,50.32168],[-4.553953,50.321768],[-4.554833,50.321913],[-4.587207,50.328389],[-4.590367,50.328389],[-4.591874,50.327886],[-4.592995,50.325643],[-4.5933,50.325122],[-4.593682,50.324621],[-4.594139,50.324147],[-4.594666,50.323704],[-4.595257,50.323295],[-4.595908,50.322925],[-4.596612,50.322596],[-4.597362,50.322313],[-4.598152,50.322078],[-4.598974,50.321892],[-4.59982,50.321759],[-4.600682,50.321678],[-4.601553,50.321651],[-4.608291,50.321651],[-4.609172,50.321678],[-4.610044,50.321761],[-4.610899,50.321898],[-4.611729,50.322087],[-4.612526,50.322328],[-4.613282,50.322617],[-4.61399,50.322953],[-4.614643,50.323331],[-4.615235,50.323748],[-4.61576,50.3242],[-4.615915,50.324364],[-4.622099,50.322302],[-4.622916,50.322062],[-4.623767,50.321876],[-4.624643,50.321744],[-4.625535,50.321669],[-4.626435,50.321652],[-4.627332,50.321692],[-4.628219,50.321789],[-4.641977,50.323755],[-4.653755,50.322072],[-4.65665,50.320625],[-4.657345,50.32031],[-4.658084,50.320038],[-4.65886,50.319813],[-4.659666,50.319636],[-4.660494,50.319508],[-4.661338,50.31943],[-4.662189,50.319405],[-4.665232,50.319405],[-4.667397,50.316157],[-4.667793,50.315637],[-4.668269,50.315145],[-4.66882,50.314686],[-4.669441,50.314266],[-4.670125,50.313887],[-4.674617,50.31164],[-4.675317,50.311323],[-4.676062,50.311051],[-4.676844,50.310824],[-4.677657,50.310647],[-4.678492,50.31052],[-4.679342,50.310444],[-4.6802,50.310421],[-4.681057,50.310449],[-4.681907,50.310531],[-4.68274,50.310663],[-4.683549,50.310846],[-4.684328,50.311077],[-4.685068,50.311355],[-4.685764,50.311676],[-4.686408,50.312039],[-4.686995,50.312439],[-4.695978,50.319177],[-4.696516,50.319623],[-4.696982,50.3201],[-4.697373,50.320604],[-4.697685,50.32113],[-4.697915,50.321673],[-4.69806,50.322228],[-4.69812,50.322789],[-4.698093,50.323351],[-4.696231,50.338247],[-4.701415,50.340839],[-4.702098,50.341217],[-4.702533,50.341512],[-4.704023,50.340022],[-4.704571,50.339533],[-4.705196,50.339083],[-4.705892,50.338677],[-4.70665,50.33832],[-4.707462,50.338016],[-4.70832,50.337767],[-4.717303,50.335522],[-4.717952,50.335378],[-4.718617,50.335266],[-4.733186,50.333184],[-4.745614,50.32904],[-4.746399,50.328809],[-4.747215,50.328626],[-4.748054,50.328495],[-4.74891,50.328415],[-4.749773,50.328389],[-4.754432,50.328389],[-4.760905,50.323209],[-4.758953,50.317351],[-4.757714,50.313636],[-4.753236,50.312516],[-4.752419,50.312281],[-4.751643,50.311995],[-4.750915,50.311662],[-4.750242,50.311283],[-4.749632,50.310864],[-4.749091,50.310408],[-4.748623,50.30992],[-4.748234,50.309404],[-4.747928,50.308866],[-4.747706,50.308312],[-4.747573,50.307746],[-4.747528,50.307174],[-4.747528,50.300437],[-4.747572,50.299872],[-4.747702,50.299312],[-4.747918,50.298764],[-4.748218,50.298231],[-4.748599,50.29772],[-4.749056,50.297235],[-4.749586,50.296782],[-4.750183,50.296364],[-4.750842,50.295986],[-4.751556,50.295651],[-4.752318,50.295362],[-4.75312,50.295123],[-4.753956,50.294936],[-4.754817,50.294802],[-4.755694,50.294722],[-4.756579,50.294699],[-4.757463,50.294731],[-4.758338,50.294819],[-4.759196,50.294961],[-4.764753,50.296073],[-4.776722,50.287095],[-4.776722,50.286394],[-4.773644,50.283316],[-4.773206,50.282826],[-4.772845,50.282311],[-4.772565,50.281776],[-4.772368,50.281225],[-4.772257,50.280666],[-4.772233,50.280101],[-4.772295,50.279538],[-4.772444,50.278982],[-4.772677,50.278438],[-4.772993,50.277911],[-4.773389,50.277406],[-4.77386,50.276928],[-4.774402,50.276483],[-4.77501,50.276073],[-4.775678,50.275704],[-4.777599,50.274743],[-4.777996,50.273554],[-4.777924,50.273518],[-4.777237,50.273137],[-4.776613,50.272713],[-4.77606,50.272251],[-4.775583,50.271756],[-4.775186,50.271233],[-4.774875,50.270686],[-4.774651,50.270122],[-4.774518,50.269547],[-4.774477,50.268966],[-4.774528,50.268385],[-4.77467,50.267811],[-4.774903,50.267248],[-4.775245,50.266565],[-4.766697,50.262292],[-4.766013,50.261913],[-4.765392,50.261492],[-4.764841,50.261033],[-4.764364,50.260541],[-4.763968,50.260021],[-4.763655,50.259478],[-4.76343,50.258918],[-4.763293,50.258346],[-4.763248,50.257768],[-4.763248,50.253276],[-4.763289,50.252726],[-4.763413,50.252181],[-4.763617,50.251646],[-4.763901,50.251127],[-4.764261,50.250627],[-4.764694,50.250151],[-4.765196,50.249704],[-4.765764,50.249289],[-4.76639,50.248912],[-4.767071,50.248574],[-4.767798,50.24828],[-4.768567,50.248032],[-4.779415,50.244932],[-4.779309,50.244897],[-4.778553,50.244614],[-4.777843,50.244285],[-4.777186,50.243914],[-4.77659,50.243503],[-4.776058,50.243058],[-4.775597,50.242581],[-4.775211,50.242078],[-4.774904,50.241553],[-4.774678,50.241011],[-4.774536,50.240458],[-4.774478,50.239899],[-4.774506,50.239338],[-4.774619,50.238782],[-4.774817,50.238236],[-4.775097,50.237705],[-4.775456,50.237194],[-4.775891,50.236707],[-4.778136,50.234461],[-4.778656,50.233994],[-4.779247,50.233562],[-4.779901,50.23317],[-4.780613,50.232822],[-4.781376,50.232521],[-4.782183,50.23227],[-4.783024,50.232072],[-4.790626,50.230551],[-4.792515,50.221105],[-4.792666,50.220561],[-4.792898,50.220028],[-4.793209,50.219512],[-4.793596,50.219018],[-4.794056,50.218549],[-4.794583,50.218111],[-4.795174,50.217707],[-4.795823,50.217342],[-4.796524,50.217018],[-4.79727,50.216739],[-4.798055,50.216507],[-4.798871,50.216325],[-4.79971,50.216193],[-4.800566,50.216113],[-4.801429,50.216087],[-4.80592,50.216088],[-4.806781,50.216115],[-4.807634,50.216194],[-4.808471,50.216325],[-4.809284,50.216507],[-4.810067,50.216738],[-4.816804,50.218983],[-4.817565,50.219268],[-4.818279,50.2196],[-4.818938,50.219974],[-4.819537,50.220388],[-4.82007,50.220838],[-4.820531,50.221318],[-4.820917,50.221826],[-4.824501,50.227202],[-4.824732,50.227317],[-4.828375,50.227317],[-4.829137,50.227338],[-4.829894,50.2274],[-4.83064,50.227503],[-4.844114,50.229749],[-4.844915,50.229909],[-4.845689,50.230115],[-4.846429,50.230367],[-4.847129,50.230661],[-4.847784,50.230996],[-4.848387,50.231369],[-4.848932,50.231776],[-4.84897,50.23181],[-4.858967,50.23181],[-4.867823,50.227382],[-4.869225,50.224577],[-4.869536,50.224046],[-4.869928,50.223537],[-4.870396,50.223055],[-4.870936,50.222605],[-4.871543,50.222191],[-4.872211,50.221818],[-4.872933,50.221489],[-4.873702,50.221206],[-4.874511,50.220974],[-4.878236,50.220042],[-4.878478,50.219615],[-4.878862,50.219101],[-4.879324,50.218614],[-4.879859,50.218158],[-4.880462,50.217739],[-4.881127,50.21736],[-4.881847,50.217025],[-4.882615,50.216737],[-4.887227,50.2152],[-4.890426,50.212],[-4.890948,50.211531],[-4.891541,50.211098],[-4.892198,50.210706],[-4.892913,50.210357],[-4.89368,50.210055],[-4.894489,50.209805],[-4.895334,50.209607],[-4.895935,50.209508],[-4.89589,50.209383],[-4.895776,50.208827],[-4.895748,50.208266],[-4.895805,50.207706],[-4.895948,50.207152],[-4.896174,50.20661],[-4.896481,50.206084],[-4.896867,50.205581],[-4.897328,50.205103],[-4.89786,50.204657],[-4.898457,50.204246],[-4.899113,50.203874],[-4.899823,50.203545],[-4.90058,50.203262],[-4.902485,50.202627],[-4.902485,50.201624],[-4.902529,50.201055],[-4.902661,50.200491],[-4.902879,50.199939],[-4.903182,50.199403],[-4.903566,50.198889],[-4.904028,50.198401],[-4.904563,50.197946],[-4.905166,50.197526],[-4.90583,50.197147],[-4.90655,50.196812],[-4.907318,50.196524],[-4.913325,50.194521],[-4.917167,50.1926],[-4.917873,50.192281],[-4.918623,50.192006],[-4.919411,50.19178],[-4.92023,50.191602],[-4.921071,50.191476],[-4.921927,50.191402],[-4.92279,50.191381],[-4.923653,50.191414],[-4.924506,50.191499],[-4.925343,50.191636],[-4.926156,50.191825],[-4.926936,50.192062],[-4.927678,50.192346],[-4.928373,50.192674],[-4.929015,50.193044],[-4.9296,50.193452],[-4.93012,50.193893],[-4.930572,50.194365],[-4.93095,50.194862],[-4.931253,50.19538],[-4.93314,50.199156],[-4.934278,50.200294],[-4.937657,50.202546],[-4.94717,50.20096],[-4.952149,50.197641],[-4.958275,50.193556],[-4.960014,50.191818],[-4.959056,50.189902],[-4.958826,50.189346],[-4.958683,50.188778],[-4.958629,50.188204],[-4.958666,50.18763],[-4.958791,50.18706],[-4.959005,50.186502],[-4.959305,50.185959],[-4.959688,50.185439],[-4.96015,50.184946],[-4.960687,50.184485],[-4.961293,50.18406],[-4.961963,50.183677],[-4.962688,50.183338],[-4.963463,50.183047],[-4.964874,50.182577],[-4.964821,50.182534],[-4.964359,50.182081],[-4.963965,50.181602],[-4.963644,50.181102],[-4.963397,50.180584],[-4.963227,50.180054],[-4.963136,50.179516],[-4.963125,50.178975],[-4.963193,50.178435],[-4.965439,50.167206],[-4.96558,50.166689],[-4.965794,50.166182],[-4.96608,50.165689],[-4.966434,50.165216],[-4.966854,50.164765],[-4.967337,50.16434],[-4.975903,50.157487],[-4.974547,50.153419],[-4.974406,50.152865],[-4.97435,50.152305],[-4.974379,50.151743],[-4.974494,50.151186],[-4.974693,50.150639],[-4.974974,50.150107],[-4.975335,50.149595],[-4.975771,50.149108],[-4.97628,50.148651],[-4.976856,50.148228],[-4.977494,50.147842],[-4.978187,50.147498],[-4.978929,50.1472],[-4.979713,50.146948],[-4.980532,50.146748],[-4.981377,50.146599],[-4.990971,50.145228],[-4.99119,50.144941],[-4.991669,50.144447],[-4.992222,50.143987],[-5.001205,50.137248],[-5.001796,50.136846],[-5.002444,50.136482],[-5.003143,50.136159],[-5.003888,50.135881],[-5.00467,50.135649],[-5.005484,50.135467],[-5.006321,50.135336],[-5.007174,50.135257],[-5.008035,50.13523],[-5.012527,50.13523],[-5.013387,50.135257],[-5.01424,50.135336],[-5.015077,50.135467],[-5.01589,50.135649],[-5.016673,50.13588],[-5.02341,50.138126],[-5.024168,50.13841],[-5.02488,50.138741],[-5.025538,50.139114],[-5.026136,50.139526],[-5.026669,50.139974],[-5.02713,50.140454],[-5.027516,50.140959],[-5.027824,50.141487],[-5.028049,50.142031],[-5.030295,50.148768],[-5.03044,50.149347],[-5.030451,50.149468],[-5.03107,50.149711],[-5.031788,50.15006],[-5.032447,50.150454],[-5.033041,50.150888],[-5.033565,50.151358],[-5.035811,50.153604],[-5.036236,50.154078],[-5.03659,50.154575],[-5.036868,50.155091],[-5.037069,50.155622],[-5.03719,50.156163],[-5.03723,50.156709],[-5.03723,50.1612],[-5.037184,50.16178],[-5.037048,50.162353],[-5.036822,50.162915],[-5.036508,50.16346],[-5.032573,50.169363],[-5.031303,50.178256],[-5.031721,50.178353],[-5.032525,50.1786],[-5.033287,50.178896],[-5.033999,50.17924],[-5.034655,50.179626],[-5.035247,50.180053],[-5.035771,50.180515],[-5.03622,50.181008],[-5.036591,50.181527],[-5.03688,50.182067],[-5.037083,50.182623],[-5.041552,50.198261],[-5.042074,50.199828],[-5.042665,50.199475],[-5.04338,50.199126],[-5.044147,50.198825],[-5.044956,50.198574],[-5.045801,50.198376],[-5.046672,50.198234],[-5.046959,50.198206],[-5.04918,50.194875],[-5.049577,50.194354],[-5.050054,50.193861],[-5.050171,50.193763],[-5.050036,50.19365],[-5.049575,50.193171],[-5.049189,50.192666],[-5.048882,50.192139],[-5.048657,50.191596],[-5.046411,50.184859],[-5.04627,50.184306],[-5.046214,50.183746],[-5.046243,50.183186],[-5.046357,50.18263],[-5.0464,50.182512],[-5.045857,50.182426],[-5.045004,50.18223],[-5.044185,50.18198],[-5.04341,50.181678],[-5.042686,50.181328],[-5.042022,50.180932],[-5.041423,50.180496],[-5.040895,50.180024],[-5.038649,50.177779],[-5.038212,50.177291],[-5.037852,50.176779],[-5.037571,50.176246],[-5.037373,50.175698],[-5.037259,50.175141],[-5.037231,50.174579],[-5.037289,50.174018],[-5.037431,50.173463],[-5.037658,50.17292],[-5.039904,50.168428],[-5.040217,50.167894],[-5.040612,50.167382],[-5.041084,50.166898],[-5.041628,50.166446],[-5.046387,50.162877],[-5.045908,50.162527],[-5.045386,50.162059],[-5.043141,50.159814],[-5.042716,50.15934],[-5.042362,50.158843],[-5.042084,50.158327],[-5.041883,50.157796],[-5.041762,50.157255],[-5.041727,50.156784],[-5.03749,50.15396],[-5.036951,50.153566],[-5.036469,50.153142],[-5.03605,50.152691],[-5.035697,50.152218],[-5.035412,50.151727],[-5.033167,50.147236],[-5.032938,50.146686],[-5.032795,50.146124],[-5.03274,50.145555],[-5.032772,50.144986],[-5.032892,50.144421],[-5.033099,50.143867],[-5.033389,50.143329],[-5.033762,50.142812],[-5.034212,50.142321],[-5.034736,50.141861],[-5.035329,50.141436],[-5.035984,50.141051],[-5.036695,50.140709],[-5.037455,50.140414],[-5.038257,50.140168],[-5.039093,50.139975],[-5.039955,50.139835],[-5.040834,50.139751],[-5.041722,50.139723],[-5.048459,50.139723],[-5.04932,50.139749],[-5.050172,50.139829],[-5.051009,50.13996],[-5.051822,50.140142],[-5.052605,50.140373],[-5.057393,50.141969],[-5.061089,50.141969],[-5.068671,50.138178],[-5.068671,50.136497],[-5.068711,50.135951],[-5.068832,50.13541],[-5.069033,50.134878],[-5.069311,50.134362],[-5.069665,50.133864],[-5.070091,50.13339],[-5.074582,50.128898],[-5.07504,50.128481],[-5.075555,50.128092],[-5.076121,50.127733],[-5.076734,50.127408],[-5.07739,50.127119],[-5.082148,50.125216],[-5.082146,50.125179],[-5.082202,50.124619],[-5.082343,50.124064],[-5.083772,50.11978],[-5.083529,50.119773],[-5.082674,50.119693],[-5.081836,50.119561],[-5.081021,50.119378],[-5.080237,50.119146],[-5.079491,50.118867],[-5.078791,50.118543],[-5.078143,50.118178],[-5.077552,50.117774],[-5.077024,50.117336],[-5.076565,50.116867],[-5.076178,50.116372],[-5.075866,50.115856],[-5.075634,50.115323],[-5.075482,50.114778],[-5.075413,50.114226],[-5.075426,50.113672],[-5.075522,50.113122],[-5.075701,50.11258],[-5.075959,50.112052],[-5.076296,50.111542],[-5.083033,50.102559],[-5.083474,50.10204],[-5.083995,50.101554],[-5.084591,50.101104],[-5.085256,50.100695],[-5.085983,50.100333],[-5.086764,50.10002],[-5.08759,50.09976],[-5.088454,50.099555],[-5.094775,50.098291],[-5.08972,50.096847],[-5.088933,50.096592],[-5.08819,50.096288],[-5.087496,50.09594],[-5.086859,50.09555],[-5.086284,50.095121],[-5.085778,50.094658],[-5.085345,50.094166],[-5.084989,50.093649],[-5.084903,50.093482],[-5.084655,50.093332],[-5.083293,50.092424],[-5.083218,50.092446],[-5.082415,50.092623],[-5.081589,50.092751],[-5.080748,50.092828],[-5.0799,50.092853],[-5.077654,50.092853],[-5.076773,50.092826],[-5.075901,50.092743],[-5.075046,50.092605],[-5.074216,50.092415],[-5.073419,50.092173],[-5.072663,50.091882],[-5.071955,50.091545],[-5.071302,50.091165],[-5.07071,50.090746],[-5.070185,50.090292],[-5.069732,50.089807],[-5.069355,50.089296],[-5.069058,50.088763],[-5.068843,50.088214],[-5.068714,50.087655],[-5.068671,50.08709],[-5.068671,50.084844],[-5.068719,50.084249],[-5.068862,50.08366],[-5.0691,50.083083],[-5.071137,50.079008],[-5.072167,50.07489],[-5.068671,50.07489],[-5.06779,50.074862],[-5.066918,50.074779],[-5.066063,50.074641],[-5.065233,50.074451],[-5.064436,50.074209],[-5.06368,50.073918],[-5.062972,50.073581],[-5.062319,50.073201],[-5.061727,50.072782],[-5.061202,50.072327],[-5.060749,50.071842],[-5.060372,50.07133],[-5.060075,50.070798],[-5.05986,50.070249],[-5.059731,50.069689],[-5.059688,50.069124],[-5.059688,50.068136],[-5.057793,50.067505],[-5.057035,50.067221],[-5.056323,50.066891],[-5.055664,50.066517],[-5.055066,50.066105],[-5.054533,50.065657],[-5.054071,50.065177],[-5.053685,50.064671],[-5.053377,50.064143],[-5.05315,50.063599],[-5.053008,50.063042],[-5.052951,50.06248],[-5.05298,50.061916],[-5.053094,50.061357],[-5.053293,50.060808],[-5.053575,50.060274],[-5.053778,50.059984],[-5.053377,50.059754],[-5.05277,50.059329],[-5.052232,50.058867],[-5.051769,50.058373],[-5.051385,50.057851],[-5.051084,50.057308],[-5.050869,50.056748],[-5.050742,50.056177],[-5.050705,50.0556],[-5.050758,50.055025],[-5.0509,50.054455],[-5.05113,50.053897],[-5.051445,50.053357],[-5.051843,50.05284],[-5.05232,50.052351],[-5.05287,50.051895],[-5.053488,50.051476],[-5.054168,50.051099],[-5.058708,50.048829],[-5.057641,50.045629],[-5.057495,50.045049],[-5.057442,50.044463],[-5.057482,50.043876],[-5.057615,50.043295],[-5.057838,50.042726],[-5.058151,50.042174],[-5.05855,50.041646],[-5.05903,50.041146],[-5.059586,50.04068],[-5.060214,50.040253],[-5.060906,50.039869],[-5.061933,50.039355],[-5.061933,50.037684],[-5.061979,50.037102],[-5.062116,50.036526],[-5.062342,50.035962],[-5.062657,50.035415],[-5.063055,50.034892],[-5.063534,50.034396],[-5.064087,50.033935],[-5.064711,50.033512],[-5.065398,50.033131],[-5.06989,50.030885],[-5.070583,50.030571],[-5.07132,50.0303],[-5.072093,50.030075],[-5.072895,50.029898],[-5.07372,50.02977],[-5.07456,50.029693],[-5.075408,50.029668],[-5.082818,50.029668],[-5.086905,50.026942],[-5.087406,50.026652],[-5.087067,50.025974],[-5.086829,50.025397],[-5.086685,50.024806],[-5.086637,50.024209],[-5.086637,50.022868],[-5.084822,50.019238],[-5.084592,50.018686],[-5.084448,50.018122],[-5.084392,50.017552],[-5.084423,50.016981],[-5.084543,50.016414],[-5.084749,50.015858],[-5.08504,50.015318],[-5.085412,50.014799],[-5.085862,50.014307],[-5.086386,50.013845],[-5.086978,50.013419],[-5.087633,50.013032],[-5.088345,50.012689],[-5.089105,50.012393],[-5.089908,50.012147],[-5.090744,50.011952],[-5.091606,50.011812],[-5.091635,50.01181],[-5.096221,50.004166],[-5.096602,50.003618],[-5.097069,50.003098],[-5.097618,50.002613],[-5.098242,50.002166],[-5.098934,50.001764],[-5.099688,50.00141],[-5.100495,50.001108],[-5.101346,50.000862],[-5.110329,49.998616],[-5.111137,49.998442],[-5.111967,49.998317],[-5.112811,49.998244],[-5.113662,49.998223],[-5.114513,49.998254],[-5.115355,49.998336],[-5.116181,49.998469],[-5.116984,49.998652],[-5.117757,49.998883],[-5.118492,49.99916],[-5.119182,49.99948],[-5.119823,49.999841],[-5.120407,50.00024],[-5.126701,50.004961],[-5.12847,50.004961],[-5.130528,50.003932],[-5.131225,50.003616],[-5.131965,50.003345],[-5.132742,50.003119],[-5.133549,50.002942],[-5.134379,50.002815],[-5.135223,50.00274],[-5.136075,50.002715],[-5.136926,50.002743],[-5.13777,50.002823],[-5.138598,50.002954],[-5.139403,50.003134],[-5.140178,50.003363],[-5.142781,50.004231],[-5.145383,50.003364],[-5.146153,50.003136],[-5.146952,50.002956],[-5.147775,50.002825],[-5.148613,50.002745],[-5.149459,50.002716],[-5.150306,50.002738],[-5.151145,50.002811],[-5.151971,50.002935],[-5.152774,50.003108],[-5.157007,50.004166],[-5.160757,50.002291],[-5.165238,49.99781],[-5.165238,49.992768],[-5.165279,49.992219],[-5.1654,49.991675],[-5.165602,49.99114],[-5.165882,49.990621],[-5.166237,49.990121],[-5.166665,49.989644],[-5.178713,49.977597],[-5.178713,49.965819],[-5.178756,49.965253],[-5.178885,49.964692],[-5.1791,49.964142],[-5.179397,49.963608],[-5.179774,49.963095],[-5.180227,49.962609],[-5.180752,49.962153],[-5.181344,49.961733],[-5.181997,49.961352],[-5.182705,49.961014],[-5.183461,49.960723],[-5.184258,49.96048],[-5.185088,49.960289],[-5.185943,49.960151],[-5.186815,49.960068],[-5.187696,49.96004],[-5.194022,49.96004],[-5.195861,49.958201],[-5.196383,49.957732],[-5.196976,49.957299],[-5.197633,49.956906],[-5.198347,49.956557],[-5.199113,49.956255],[-5.199921,49.956004],[-5.200763,49.955806],[-5.201633,49.955664],[-5.20252,49.955578],[-5.203416,49.955549],[-5.219136,49.955549],[-5.220011,49.955576],[-5.220878,49.955659],[-5.221729,49.955795],[-5.222555,49.955984],[-5.223348,49.956223],[-5.224101,49.956512],[-5.224807,49.956846],[-5.225459,49.957223],[-5.22605,49.957639],[-5.226576,49.95809],[-5.227031,49.958572],[-5.227411,49.95908],[-5.227713,49.959609],[-5.227932,49.960155],[-5.228068,49.960712],[-5.229538,49.969534],[-5.230008,49.969673],[-5.235704,49.971572],[-5.250279,49.973654],[-5.251124,49.973803],[-5.251943,49.974005],[-5.252727,49.974256],[-5.25347,49.974555],[-5.254163,49.9749],[-5.254801,49.975286],[-5.255377,49.975711],[-5.255887,49.976169],[-5.258133,49.978416],[-5.258572,49.978906],[-5.258935,49.979422],[-5.259217,49.979959],[-5.259416,49.98051],[-5.259531,49.981072],[-5.259559,49.981638],[-5.259501,49.982203],[-5.259357,49.982761],[-5.259129,49.983308],[-5.258724,49.984117],[-5.262816,49.98514],[-5.263633,49.985375],[-5.264409,49.985661],[-5.265138,49.985996],[-5.265811,49.986375],[-5.266422,49.986795],[-5.266965,49.987253],[-5.267434,49.987743],[-5.267825,49.988261],[-5.268134,49.988801],[-5.268358,49.989358],[-5.268495,49.989926],[-5.268543,49.990501],[-5.268502,49.991076],[-5.268372,49.991645],[-5.268155,49.992203],[-5.267852,49.992745],[-5.267467,49.993264],[-5.267003,49.993756],[-5.266722,49.993997],[-5.267363,49.994138],[-5.268136,49.994363],[-5.268872,49.994633],[-5.269565,49.994947],[-5.274057,49.997192],[-5.274736,49.997568],[-5.275354,49.997986],[-5.275904,49.998441],[-5.27638,49.998929],[-5.276779,49.999445],[-5.277095,49.999984],[-5.279341,50.004477],[-5.27957,50.005024],[-5.279713,50.005583],[-5.279771,50.006149],[-5.279742,50.006716],[-5.279627,50.007278],[-5.279426,50.00783],[-5.279143,50.008366],[-5.278778,50.008883],[-5.272126,50.017198],[-5.272414,50.01761],[-5.272697,50.01815],[-5.272895,50.018705],[-5.273007,50.019269],[-5.273032,50.019839],[-5.27297,50.020407],[-5.272821,50.020968],[-5.272586,50.021517],[-5.272268,50.022049],[-5.271871,50.022558],[-5.271397,50.023039],[-5.270852,50.023488],[-5.27024,50.0239],[-5.270039,50.024011],[-5.271609,50.025581],[-5.276101,50.030073],[-5.276543,50.030567],[-5.276906,50.031086],[-5.277189,50.031625],[-5.277387,50.03218],[-5.277499,50.032745],[-5.277524,50.033314],[-5.277462,50.033882],[-5.277313,50.034443],[-5.277078,50.034992],[-5.276917,50.035262],[-5.280149,50.037201],[-5.287522,50.039045],[-5.288347,50.039282],[-5.28913,50.039572],[-5.289865,50.039911],[-5.290542,50.040295],[-5.291156,50.040721],[-5.2917,50.041185],[-5.292169,50.041682],[-5.292558,50.042206],[-5.292862,50.042752],[-5.29308,50.043316],[-5.293208,50.043891],[-5.293246,50.044471],[-5.293193,50.04505],[-5.293049,50.045623],[-5.292816,50.046184],[-5.28962,50.052577],[-5.296012,50.058969],[-5.322154,50.07908],[-5.326933,50.07908],[-5.327793,50.079106],[-5.328646,50.079185],[-5.329482,50.079317],[-5.330295,50.079499],[-5.331078,50.07973],[-5.331822,50.080008],[-5.332521,50.080331],[-5.333169,50.080695],[-5.333759,50.081097],[-5.34106,50.086574],[-5.347144,50.08779],[-5.3557,50.086079],[-5.356576,50.085935],[-5.35747,50.085848],[-5.358373,50.085818],[-5.367356,50.085818],[-5.368253,50.085847],[-5.369141,50.085933],[-5.370011,50.086076],[-5.370855,50.086274],[-5.371663,50.086524],[-5.372429,50.086826],[-5.373144,50.087174],[-5.373801,50.087567],[-5.374394,50.088],[-5.374916,50.088469],[-5.375869,50.089421],[-5.380481,50.090959],[-5.381239,50.091243],[-5.381949,50.091572],[-5.382607,50.091945],[-5.383204,50.092356],[-5.383736,50.092803],[-5.384198,50.093282],[-5.384585,50.093786],[-5.384893,50.094313],[-5.386009,50.096545],[-5.389035,50.097554],[-5.393775,50.098739],[-5.3969,50.097697],[-5.397669,50.09747],[-5.398468,50.09729],[-5.399289,50.097159],[-5.400127,50.097078],[-5.400972,50.097048],[-5.401818,50.097069],[-5.402657,50.097141],[-5.403481,50.097264],[-5.404284,50.097436],[-5.405059,50.097656],[-5.405797,50.097921],[-5.412104,50.100444],[-5.422728,50.095891],[-5.42696,50.093774],[-5.427672,50.093452],[-5.42843,50.093176],[-5.429227,50.092948],[-5.430054,50.092771],[-5.430903,50.092646],[-5.431768,50.092574],[-5.432639,50.092557],[-5.433509,50.092594],[-5.434369,50.092685],[-5.435212,50.092829],[-5.436029,50.093024],[-5.436812,50.09327],[-5.437555,50.093563],[-5.43825,50.0939],[-5.43889,50.09428],[-5.43947,50.094697],[-5.439985,50.095149],[-5.440428,50.09563],[-5.440797,50.096137],[-5.441088,50.096664],[-5.441297,50.097207],[-5.441424,50.09776],[-5.441466,50.098319],[-5.441466,50.102928],[-5.447159,50.107198],[-5.459084,50.111174],[-5.459891,50.111478],[-5.460645,50.111834],[-5.461336,50.112239],[-5.461958,50.112688],[-5.462503,50.113176],[-5.468163,50.118836],[-5.474723,50.117524],[-5.475594,50.11738],[-5.476484,50.117292],[-5.477383,50.117262],[-5.478282,50.11729],[-5.479172,50.117376],[-5.480044,50.117518],[-5.48089,50.117715],[-5.481701,50.117966],[-5.482468,50.118267],[-5.483185,50.118617],[-5.483843,50.11901],[-5.484437,50.119444],[-5.48496,50.119913],[-5.487554,50.122508],[-5.496051,50.123924],[-5.522582,50.122155],[-5.522526,50.122024],[-5.522377,50.121464],[-5.522315,50.120898],[-5.52234,50.120331],[-5.522452,50.119767],[-5.522649,50.119214],[-5.522931,50.118676],[-5.523294,50.118158],[-5.523735,50.117666],[-5.524559,50.116842],[-5.524559,50.116285],[-5.524603,50.115714],[-5.524735,50.115149],[-5.524954,50.114596],[-5.525257,50.114058],[-5.525642,50.113543],[-5.526104,50.113055],[-5.52664,50.112598],[-5.527243,50.112178],[-5.527909,50.111798],[-5.52863,50.111462],[-5.529399,50.111174],[-5.542338,50.106861],[-5.530915,50.097342],[-5.530469,50.096935],[-5.530079,50.096505],[-5.529749,50.096054],[-5.52948,50.095588],[-5.527234,50.091097],[-5.527007,50.090552],[-5.526864,50.089996],[-5.526806,50.089433],[-5.526834,50.08887],[-5.526948,50.088311],[-5.527147,50.087761],[-5.527428,50.087227],[-5.527789,50.086713],[-5.528227,50.086224],[-5.531706,50.082744],[-5.533655,50.074948],[-5.533848,50.074368],[-5.534133,50.073804],[-5.534507,50.073261],[-5.534965,50.072747],[-5.546194,50.061518],[-5.546788,50.060992],[-5.547471,50.060512],[-5.548233,50.060084],[-5.552724,50.057838],[-5.553473,50.057501],[-5.554271,50.057215],[-5.555111,50.056982],[-5.555983,50.056806],[-5.556878,50.056687],[-5.557787,50.056627],[-5.558702,50.056627],[-5.559611,50.056687],[-5.560506,50.056806],[-5.561378,50.056982],[-5.561832,50.057108],[-5.561915,50.057025],[-5.562509,50.056499],[-5.563192,50.056019],[-5.563955,50.055591],[-5.572938,50.051099],[-5.573684,50.050764],[-5.574479,50.050479],[-5.575315,50.050247],[-5.576183,50.05007],[-5.577074,50.049951],[-5.598877,50.04777],[-5.609472,50.045651],[-5.610348,50.045506],[-5.611241,50.045419],[-5.612144,50.04539],[-5.621798,50.04539],[-5.632623,50.038172],[-5.633262,50.037786],[-5.633957,50.037442],[-5.6347,50.037142],[-5.635486,50.036891],[-5.636305,50.03669],[-5.637152,50.036542],[-5.638017,50.036447],[-5.638892,50.036407],[-5.639769,50.036422],[-5.64064,50.036492],[-5.641496,50.036616],[-5.642329,50.036793],[-5.643131,50.037021],[-5.643894,50.037299],[-5.644612,50.037623],[-5.648076,50.039355],[-5.65154,50.037623],[-5.652199,50.037323],[-5.652897,50.037062],[-5.653628,50.036843],[-5.654388,50.036666],[-5.664516,50.03464],[-5.674768,50.03054],[-5.67553,50.030267],[-5.67633,50.030043],[-5.67716,50.02987],[-5.678013,50.029749],[-5.678879,50.029682],[-5.679752,50.02967],[-5.680622,50.029712],[-5.681482,50.029808],[-5.682324,50.029957],[-5.683139,50.030158],[-5.683919,50.030408],[-5.684659,50.030707],[-5.685349,50.03105],[-5.685985,50.031434],[-5.692723,50.035925],[-5.693289,50.036341],[-5.693792,50.03679],[-5.694225,50.037268],[-5.694585,50.037771],[-5.694868,50.038293],[-5.695073,50.03883],[-5.695185,50.039329],[-5.696264,50.039869],[-5.696943,50.040245],[-5.69756,50.040662],[-5.698109,50.041117],[-5.698584,50.041604],[-5.698982,50.042119],[-5.699298,50.042658],[-5.699529,50.043213],[-5.700358,50.045699],[-5.700948,50.045836],[-5.70175,50.046082],[-5.70251,50.046378],[-5.703222,50.046721],[-5.703877,50.047107],[-5.704469,50.047532],[-5.704993,50.047994],[-5.705443,50.048486],[-5.705816,50.049005],[-5.706106,50.049544],[-5.706313,50.050099],[-5.706432,50.050665],[-5.706464,50.051236],[-5.706408,50.051805],[-5.706326,50.052127],[-5.708711,50.052127],[-5.709571,50.052154],[-5.710423,50.052233],[-5.711259,50.052364],[-5.712072,50.052546],[-5.712854,50.052778],[-5.713598,50.053056],[-5.714298,50.053378],[-5.714945,50.053743],[-5.715536,50.054145],[-5.724519,50.060883],[-5.725065,50.061337],[-5.725538,50.061823],[-5.725934,50.062336],[-5.726248,50.062873],[-5.726478,50.063426],[-5.728724,50.070163],[-5.728869,50.070737],[-5.728923,50.071316],[-5.728886,50.071896],[-5.728758,50.072471],[-5.728541,50.073034],[-5.728236,50.073581],[-5.727848,50.074105],[-5.727379,50.074602],[-5.726836,50.075065],[-5.726222,50.075491],[-5.725544,50.075876],[-5.72481,50.076215],[-5.724026,50.076504],[-5.723201,50.076742],[-5.722022,50.077037],[-5.722126,50.077442],[-5.722185,50.078003]],[[-4.937155,50.561707],[-4.936576,50.561529],[-4.936508,50.561868],[-4.939263,50.564623],[-4.939692,50.565102],[-4.939928,50.565436],[-4.941094,50.562522],[-4.937965,50.561896],[-4.937155,50.561707]],[[-4.926735,50.539591],[-4.925843,50.539677],[-4.924942,50.539706],[-4.924788,50.539706],[-4.924897,50.54016],[-4.924942,50.540733],[-4.924942,50.541772],[-4.928778,50.543051],[-4.927862,50.539389],[-4.927608,50.539448],[-4.926735,50.539591]]]},"properties":{}}]}